{
"type": "FeatureCollection",
"name": "loss",
"crs": { "type": "name", "properties": { "name": "urn:ogc:def:crs:OGC:1.3:CRS84" } },
"features": [
{ "type": "Feature", "properties": { "id": 3863, "sector": "Steel", "value_cr": 24.4, "EAD_cr": 5.9, "depth_m": 1.2, "loss_cr": 6.4416 }, "geometry": { "type": "Point", "coordinates": [ 72.868097091574967, 18.962503089115817 ] } },
{ "type": "Feature", "properties": { "id": 5081, "sector": "Transport", "value_cr": 6.7, "EAD_cr": 6.0, "depth_m": 1.2, "loss_cr": 1.7688 }, "geometry": { "type": "Point", "coordinates": [ 72.727050447859426, 18.96072934832937 ] } },
{ "type": "Feature", "properties": { "id": 5372, "sector": "Power", "value_cr": 30.5, "EAD_cr": 12.5, "depth_m": 1.2, "loss_cr": 10.248 }, "geometry": { "type": "Point", "coordinates": [ 72.85845203332434, 19.172029323234067 ] } },
{ "type": "Feature", "properties": { "id": 7603, "sector": "Transport", "value_cr": 23.6, "EAD_cr": 6.2, "depth_m": 1.2, "loss_cr": 6.2304 }, "geometry": { "type": "Point", "coordinates": [ 72.882219917473464, 18.994953374382405 ] } },
{ "type": "Feature", "properties": { "id": 9309, "sector": "Transport", "value_cr": 3.7, "EAD_cr": 19.3, "depth_m": 1.2, "loss_cr": 0.9768 }, "geometry": { "type": "Point", "coordinates": [ 72.767941235611246, 19.267267243228964 ] } },
{ "type": "Feature", "properties": { "id": 9803, "sector": "Oil & Gas", "value_cr": 15.0, "EAD_cr": 12.5, "depth_m": 1.2, "loss_cr": 3.96 }, "geometry": { "type": "Point", "coordinates": [ 72.927701041951195, 19.209927402880563 ] } }
]
}
