{
"type": "FeatureCollection",
"name": "hazard_flood_100yr",
"crs": { "type": "name", "properties": { "name": "urn:ogc:def:crs:OGC:1.3:CRS84" } },
"features": [
{ "type": "Feature", "properties": { "hazard": "flood_100yr", "depth_m": 1.2, "return_period": 100, "source": "WRI Aqueduct (sample)" }, "geometry": { "type": "Polygon", "coordinates": [ [ [ 72.7, 18.9 ], [ 73.0, 18.9 ], [ 73.0, 19.3 ], [ 72.7, 19.3 ], [ 72.7, 18.9 ] ] ] } },
{ "type": "Feature", "properties": { "hazard": "flood_100yr", "depth_m": 0.9, "return_period": 100, "source": "WRI Aqueduct (sample)" }, "geometry": { "type": "Polygon", "coordinates": [ [ [ 80.1, 12.8 ], [ 80.4, 12.8 ], [ 80.4, 13.2 ], [ 80.1, 13.2 ], [ 80.1, 12.8 ] ] ] } }
]
}
