{
"type": "FeatureCollection",
"name": "hazard_cyclone_ibtracs_real",
"crs": { "type": "name", "properties": { "name": "urn:ogc:def:crs:OGC:1.3:CRS84" } },
"features": [
{ "type": "Feature", "properties": { "hazard": "cyclone_ibtracs_buffer50km", "source": "IBTrACS NI 1842-2023 473 storms", "storms": 473 }, "geometry": { "type": "Polygon", "coordinates": [ [ [ 64.918573690974583, 7.76100877877917 ], [ 64.875816418838326, 7.771620678696594 ], [ 64.834314811863564, 7.786333539480673 ], [ 64.794468553212582, 7.805005244394043 ], [ 64.756661384138326, 7.827455456404254 ], [ 64.721257408346517, 7.853467373707499 ], [ 64.688597585477794, 7.88278983930353 ], [ 64.658996447480064, 7.915139783574403 ], [ 64.632739069493866, 7.950204975524225 ], [ 64.610078324422943, 7.987647055299546 ], [ 64.591232447629963, 8.027104817862872 ], [ 64.576382935210646, 8.068197715265368 ], [ 64.565672796087185, 8.110529542884596 ], [ 64.559205174754041, 8.153692273281072 ], [ 64.557042357940247, 8.19727 ], [ 64.559205174754041, 8.240842952713386 ], [ 64.565672796087185, 8.283991544569052 ], [ 64.576382935210646, 8.326300412486669 ], [ 64.591232447629963, 8.367362411412504 ], [ 64.610078324422943, 8.40678252420283 ], [ 64.632739069493866, 8.444181649836054 ], [ 64.658996447480064, 8.479200234035568 ], [ 64.688597585477794, 8.511501708095903 ], [ 64.721257408346517, 8.540775703717621 ], [ 64.756661384138326, 8.566741013943259 ], [ 64.794468553212582, 8.589148272818143 ], [ 64.834314811863564, 8.607782329146081 ], [ 64.875816418838326, 8.622464292641066 ], [ 64.918573690974583, 8.633053233863647 ], [ 64.96217485236815, 8.639447522546597 ], [ 65.0062, 8.641585792233041 ], [ 65.050225147631878, 8.639447522546597 ], [ 65.093826309025445, 8.633053233863647 ], [ 65.111488409422847, 8.628679172244855 ], [ 65.119873690974558, 8.63075582001014 ], [ 65.16347485236814, 8.637150147629598 ], [ 65.2075, 8.639288430342917 ], [ 65.251525147631853, 8.637150147629598 ], [ 65.295126309025434, 8.63075582001014 ], [ 65.305856327753034, 8.628098488914606 ], [ 65.317473690974552, 8.630975572669929 ], [ 65.361074852368134, 8.637369896565469 ], [ 65.4051, 8.639508178032886 ], [ 65.449125147631861, 8.637369896565469 ], [ 65.492726309025443, 8.630975572669929 ], [ 65.505433171789363, 8.627828670249636 ], [ 65.517373690974551, 8.63078578628231 ], [ 65.560974852368133, 8.637180113393967 ], [ 65.605, 8.639318395937389 ], [ 65.64902514763186, 8.637180113393967 ], [ 65.67321290755946, 8.633632858134431 ], [ 65.702373690974554, 8.640854446977729 ], [ 65.745974852368136, 8.647248603369203 ], [ 65.780488415016094, 8.648924867531132 ], [ 65.809716418838306, 8.659263807872158 ], [ 65.850184235080135, 8.669284781117421 ], [ 65.852961384138325, 8.671320982351046 ], [ 65.890768553212567, 8.693722034771985 ], [ 65.930614811863563, 8.712350917587218 ], [ 65.972116418838311, 8.727028797031405 ], [ 66.003272496957706, 8.734742525255781 ], [ 66.005697585477776, 8.737387261222453 ], [ 66.038357408346513, 8.766643727931454 ], [ 66.073761384138322, 8.792593441146636 ], [ 66.111568553212564, 8.814987203032548 ], [ 66.133063810829668, 8.82503336602668 ], [ 66.12160792706662, 8.840296322434201 ], [ 66.105974852368135, 8.841055203316055 ], [ 66.062373690974553, 8.847445924194808 ], [ 66.019616418838311, 8.858028475009963 ], [ 65.978114811863563, 8.872700583353213 ], [ 65.938268553212566, 8.891320467699963 ], [ 65.900461384138325, 8.913708220338123 ], [ 65.865057408346516, 8.939647561453423 ], [ 65.832397585477779, 8.968887946750243 ], [ 65.81424424374282, 8.988671299442792 ], [ 65.783774852368126, 8.990149780355853 ], [ 65.740173690974544, 8.996537892029421 ], [ 65.697416418838301, 9.007116118121662 ], [ 65.655914811863539, 9.021782222072346 ], [ 65.616068553212557, 9.040394472377479 ], [ 65.578261384138315, 9.062773025338362 ], [ 65.542857408346492, 9.088701678898168 ], [ 65.511245769403104, 9.116991927224159 ], [ 65.4812, 9.115534518832057 ], [ 65.43717485236813, 9.117670014806928 ], [ 65.393573690974549, 9.124055860513439 ], [ 65.350816418838306, 9.134630330853037 ], [ 65.309314811863544, 9.149291220481338 ], [ 65.269468553212562, 9.167896841446037 ], [ 65.23166138413832, 9.190267405774504 ], [ 65.196257408346497, 9.216186779087677 ], [ 65.195113983368842, 9.217209698660033 ], [ 65.193725147631852, 9.217006346077323 ], [ 65.1497, 9.21487144744351 ], [ 65.105674852368139, 9.217006346077323 ], [ 65.062073690974557, 9.223390404711751 ], [ 65.019316418838315, 9.233961913084872 ], [ 64.977814811863553, 9.248618690523525 ], [ 64.937968553212571, 9.267219083492851 ], [ 64.900161384138315, 9.2895833480531 ], [ 64.873285944308975, 9.30925339543905 ], [ 64.840161384138312, 9.328845534595494 ], [ 64.804757408346504, 9.354754675338977 ], [ 64.772097585477766, 9.383960915127531 ], [ 64.742496447480036, 9.416182180063908 ], [ 64.716239069493838, 9.451107354910276 ], [ 64.693578324422916, 9.488399309623682 ], [ 64.67473244762995, 9.527698175753413 ], [ 64.659882935210632, 9.568624840039963 ], [ 64.649172796087157, 9.610784620503557 ], [ 64.642705174754028, 9.65377108863307 ], [ 64.640542357940234, 9.69717 ], [ 64.642705174754028, 9.740563294736141 ], [ 64.649172796087157, 9.783533128832923 ], [ 64.658490858465044, 9.820189586675324 ], [ 64.653005174754028, 9.856627555774233 ], [ 64.650842357940235, 9.9 ], [ 64.653005174754028, 9.943366714778488 ], [ 64.654134377327608, 9.950864339356775 ], [ 64.65153906949385, 9.954311210957973 ], [ 64.628878324422928, 9.991547101199734 ], [ 64.610032447629962, 10.030786655538195 ], [ 64.595182935210644, 10.071651300262365 ], [ 64.584472796087155, 10.113746924753938 ], [ 64.578005174754026, 10.156667699165466 ], [ 64.575842357940232, 10.2 ], [ 64.578005174754026, 10.243326405051834 ], [ 64.584472796087155, 10.286229718703265 ], [ 64.595182935210644, 10.328296988511193 ], [ 64.610032447629962, 10.369123474352566 ], [ 64.628878324422928, 10.408316532115863 ], [ 64.65153906949385, 10.445499375009732 ], [ 64.677796447480034, 10.48031467698708 ], [ 64.707397585477779, 10.512427984528799 ], [ 64.740057408346502, 10.541530905067503 ], [ 64.744363128036127, 10.544670217310406 ], [ 64.740872796087146, 10.558369415673782 ], [ 64.734405174754016, 10.601229362501131 ], [ 64.732787846243312, 10.633586626998611 ], [ 64.730305174754022, 10.650036291043525 ], [ 64.728142357940229, 10.6933 ], [ 64.730305174754022, 10.736557541077023 ], [ 64.736772796087166, 10.779392385964449 ], [ 64.747482935210641, 10.821392253390311 ], [ 64.762332447629959, 10.862153071341332 ], [ 64.781178324422925, 10.901282853583412 ], [ 64.803839069493847, 10.93840545365113 ], [ 64.817306305852128, 10.956232965844283 ], [ 64.803157408346507, 10.966535323998658 ], [ 64.77049758547777, 10.995594470400913 ], [ 64.74089644748004, 11.027652974969108 ], [ 64.714639069493856, 11.062401159836373 ], [ 64.691978324422934, 11.099503474516409 ], [ 64.673132447629953, 11.138601761901366 ], [ 64.658282935210636, 11.179318739800999 ], [ 64.647572796087147, 11.221261663256973 ], [ 64.641105174754031, 11.264026131228022 ], [ 64.638942357940238, 11.3072 ], [ 64.641105174754031, 11.350367364837846 ], [ 64.647572796087147, 11.393112570966958 ], [ 64.658282935210636, 11.435024214945964 ], [ 64.673132447629953, 11.475699097862668 ], [ 64.691978324422934, 11.51474609253534 ], [ 64.714639069493856, 11.55178988801392 ], [ 64.74089644748004, 11.586474576126967 ], [ 64.768208997113149, 11.615993574258242 ], [ 64.751261384138317, 11.625943578150068 ], [ 64.715857408346508, 11.651661073996463 ], [ 64.683197585477785, 11.680650723912903 ], [ 64.653596447480041, 11.712632355165983 ], [ 64.627339069493843, 11.747296975795349 ], [ 64.60467832442292, 11.784309787818755 ], [ 64.585832447629954, 11.823313447996391 ], [ 64.570982935210637, 11.863931543381158 ], [ 64.560272796087162, 11.905772246875243 ], [ 64.553805174754018, 11.948432116392054 ], [ 64.551642357940224, 11.9915 ], [ 64.553805174754018, 12.034561008608337 ], [ 64.560272796087162, 12.077200517347523 ], [ 64.570982935210637, 12.119008156792811 ], [ 64.585832447629954, 12.159581755570652 ], [ 64.60467832442292, 12.19853119665747 ], [ 64.627339069493843, 12.235482150810004 ], [ 64.653596447480041, 12.270079652031928 ], [ 64.683197585477785, 12.301991481755749 ], [ 64.688346286002599, 12.306550589160267 ], [ 64.692532447629958, 12.317981670444473 ], [ 64.711378324422938, 12.356907724489963 ], [ 64.730459672806447, 12.388003320789302 ], [ 64.710939069493847, 12.413710163050007 ], [ 64.688278324422939, 12.450630812083469 ], [ 64.669432447629958, 12.489537052223394 ], [ 64.654582935210641, 12.530053368230568 ], [ 64.643872796087166, 12.571788880055218 ], [ 64.637405174754036, 12.614341134144903 ], [ 64.635242357940243, 12.6573 ], [ 64.637405174754036, 12.700251633584758 ], [ 64.643872796087166, 12.742782468815196 ], [ 64.654582935210641, 12.78448319836246 ], [ 64.669432447629958, 12.824952705421365 ], [ 64.688278324422939, 12.86380190888266 ], [ 64.710939069493847, 12.900657485493594 ], [ 64.737196447480031, 12.935165434070429 ], [ 64.751082402829596, 12.950096490935953 ], [ 64.726057408346506, 12.96818385032644 ], [ 64.693397585477769, 12.99702833289607 ], [ 64.663796447480038, 13.028849426243733 ], [ 64.63753906949384, 13.063339581515296 ], [ 64.614878324422932, 13.100165582062678 ], [ 64.596032447629938, 13.138971792788475 ], [ 64.581182935210634, 13.179383622743146 ], [ 64.570472796087145, 13.221011166185264 ], [ 64.56400517475403, 13.263452985726838 ], [ 64.561842357940236, 13.3063 ], [ 64.56400517475403, 13.349139437505112 ], [ 64.570472796087145, 13.391558817933952 ], [ 64.581182935210634, 13.43314992229949 ], [ 64.596032447629938, 13.473512713634294 ], [ 64.614878324422932, 13.512259170826551 ], [ 64.63753906949384, 13.54901699932444 ], [ 64.656191408140529, 13.573465073711555 ], [ 64.637178324422919, 13.604298881708344 ], [ 64.618332447629953, 13.643024017671859 ], [ 64.603482935210636, 13.68335117336783 ], [ 64.592772796087161, 13.724891233971334 ], [ 64.586305174754017, 13.767243586453903 ], [ 64.584142357940223, 13.81 ], [ 64.586305174754017, 13.852748572078475 ], [ 64.592772796087161, 13.895077701522457 ], [ 64.603482935210636, 13.936580050024807 ], [ 64.618332447629953, 13.976856453901823 ], [ 64.637178324422919, 14.015519748798512 ], [ 64.659839069493842, 14.052198471182637 ], [ 64.68609644748004, 14.086540401976242 ], [ 64.71569758547777, 14.118215919474046 ], [ 64.748357408346507, 14.146921130768101 ], [ 64.783761384138316, 14.172380753205671 ], [ 64.791243612890668, 14.176728720024578 ], [ 64.807596447480023, 14.198106055476524 ], [ 64.837197585477767, 14.229766018811361 ], [ 64.861318071543479, 14.250955446238128 ], [ 64.861405174754026, 14.252674060430012 ], [ 64.867872796087156, 14.294929190535033 ], [ 64.876793692814871, 14.329437522215226 ], [ 64.872305174754032, 14.358754179974941 ], [ 64.870173389761888, 14.400788123176826 ], [ 64.845361384138315, 14.415192371423359 ], [ 64.809957408346506, 14.440621641808765 ], [ 64.777297585477768, 14.469285731512736 ], [ 64.747696447480038, 14.500907387482062 ], [ 64.72143906949384, 14.535180869150055 ], [ 64.698778324422918, 14.571774938644058 ], [ 64.679932447629952, 14.61033609523267 ], [ 64.665082935210634, 14.650492021184469 ], [ 64.654372796087159, 14.691855204263096 ], [ 64.647905174754015, 14.734026700532223 ], [ 64.645742357940222, 14.7766 ], [ 64.647905174754015, 14.819164956900678 ], [ 64.654372796087159, 14.861311746090905 ], [ 64.665082935210634, 14.902634807121213 ], [ 64.679932447629952, 14.942736738017718 ], [ 64.698778324422918, 14.981232101655351 ], [ 64.72143906949384, 15.017751108800494 ], [ 64.722893243311461, 15.019644716057913 ], [ 64.720682935210633, 15.025611468111748 ], [ 64.709972796087143, 15.066902872704743 ], [ 64.703505174754028, 15.109000987095495 ], [ 64.701342357940234, 15.1515 ], [ 64.703505174754028, 15.193990478508766 ], [ 64.709972796087143, 15.23606331770695 ], [ 64.720682935210633, 15.277313677686424 ], [ 64.735532447629936, 15.317344870058129 ], [ 64.748132334190274, 15.343036402520141 ], [ 64.729839069493835, 15.366822140687882 ], [ 64.707178324422927, 15.403274476671587 ], [ 64.688332447629946, 15.44168591607167 ], [ 64.673482935210643, 15.481685535077036 ], [ 64.662772796087154, 15.522887287572019 ], [ 64.656305174754024, 15.564893755317573 ], [ 64.654142357940231, 15.6073 ], [ 64.656305174754024, 15.649697479034973 ], [ 64.662772796087154, 15.691677986720228 ], [ 64.673482935210643, 15.732837582438375 ], [ 64.688332447629946, 15.77278046811014 ], [ 64.707178324422927, 15.811122777966194 ], [ 64.729839069493835, 15.847496244921187 ], [ 64.756096447480033, 15.881551709367809 ], [ 64.768039693369786, 15.894225075373162 ], [ 64.76153906949385, 15.902655413517984 ], [ 64.738878324422942, 15.939012360462948 ], [ 64.736990473217716, 15.942850063698099 ], [ 64.732596447480034, 15.947511905414983 ], [ 64.706339069493851, 15.981550425201105 ], [ 64.683678324422942, 16.017893058564315 ], [ 64.664832447629948, 16.056188631480289 ], [ 64.649982935210645, 16.096067301101584 ], [ 64.639272796087155, 16.137144157592747 ], [ 64.63280517475404, 16.179022964456593 ], [ 64.630642357940246, 16.2213 ], [ 64.63280517475404, 16.263567961899334 ], [ 64.639272796087155, 16.305419896549736 ], [ 64.649982935210645, 16.346453115009783 ], [ 64.664832447629948, 16.386273057868522 ], [ 64.677861917402481, 16.412699986442426 ], [ 64.676732447629959, 16.414990937286223 ], [ 64.661882935210642, 16.454796864309447 ], [ 64.651172796087167, 16.495798611397664 ], [ 64.644705174754023, 16.537600653229553 ], [ 64.642542357940229, 16.5798 ], [ 64.644705174754023, 16.62199009521267 ], [ 64.651172796087167, 16.663764737927508 ], [ 64.661882935210642, 16.704721991340715 ], [ 64.676732447629959, 16.744468040100628 ], [ 64.695578324422925, 16.782620959656114 ], [ 64.718239069493848, 16.818814362170475 ], [ 64.743938538069386, 16.851980873740199 ], [ 64.751439069493827, 16.863957756279856 ], [ 64.777696447480025, 16.897836190247347 ], [ 64.80729758547777, 16.929083320731216 ], [ 64.839957408346507, 16.957399588933495 ], [ 64.875361384138316, 16.982513666124483 ], [ 64.903981335467378, 16.998918832457633 ], [ 64.90003244762994, 17.006903750311086 ], [ 64.885182935210636, 17.046586265213364 ], [ 64.880412179752085, 17.064793445526654 ], [ 64.864778324422943, 17.089727674363413 ], [ 64.845932447629949, 17.127810655562502 ], [ 64.831082935210645, 17.167467440553082 ], [ 64.82923318576772, 17.174522263409802 ], [ 64.798168553212562, 17.188559217983457 ], [ 64.760361384138321, 17.210206609435239 ], [ 64.724957408346512, 17.2352866297161 ], [ 64.692297585477775, 17.263556395165939 ], [ 64.66269644748003, 17.294742245635227 ], [ 64.636439069493832, 17.328542433273597 ], [ 64.613778324422924, 17.364630082182906 ], [ 64.594932447629958, 17.402656388418542 ], [ 64.58008293521064, 17.442254027549698 ], [ 64.569372796087151, 17.483040735105401 ], [ 64.562905174754022, 17.524623023754081 ], [ 64.560742357940228, 17.5666 ], [ 64.562905174754022, 17.608567242532089 ], [ 64.569372796087151, 17.650120704125463 ], [ 64.58008293521064, 17.690860599163216 ], [ 64.594932447629958, 17.73039523939924 ], [ 64.613778324422924, 17.768344781500552 ], [ 64.636439069493832, 17.804344851164792 ], [ 64.659115180762257, 17.833452934098389 ], [ 64.654105174754037, 17.865602742031921 ], [ 64.651942357940243, 17.9075 ], [ 64.654105174754037, 17.949387360343763 ], [ 64.660572796087152, 17.990861547713486 ], [ 64.671282935210641, 18.031523547124714 ], [ 64.686132447629959, 18.070982432014556 ], [ 64.704978324422939, 18.108859103999002 ], [ 64.727639069493847, 18.144789909219732 ], [ 64.753896447480045, 18.178430097741142 ], [ 64.783497585477775, 18.209457094307467 ], [ 64.816157408346513, 18.237573550863537 ], [ 64.851561384138321, 18.262510153547304 ], [ 64.889368553212563, 18.284028159346601 ], [ 64.929214811863559, 18.301921640246075 ], [ 64.959081068743856, 18.312066976926225 ], [ 64.950482935210644, 18.33487983536639 ], [ 64.939772796087155, 18.375461731499211 ], [ 64.93330517475404, 18.416834751641275 ], [ 64.931142357940246, 18.4586 ], [ 64.93330517475404, 18.500355088730402 ], [ 64.939772796087155, 18.541698020442098 ], [ 64.950482935210644, 18.582231055697477 ], [ 64.965332447629962, 18.621564528327664 ], [ 64.970870884378229, 18.632660295528161 ], [ 64.938497585477776, 18.660461598194782 ], [ 64.908896447480046, 18.691401713534997 ], [ 64.882639069493848, 18.72493510409009 ], [ 64.85997832442294, 18.76073737007027 ], [ 64.84113244762996, 18.798462370170618 ], [ 64.826282935210642, 18.837745606786591 ], [ 64.815572796087167, 18.878207782105459 ], [ 64.809105174754038, 18.919458489046804 ], [ 64.806942357940244, 18.9611 ], [ 64.809105174754038, 19.002731115700708 ], [ 64.815572796087167, 19.043951036394489 ], [ 64.826282935210642, 19.084363217643581 ], [ 64.84113244762996, 19.123579173723293 ], [ 64.85997832442294, 19.16122219250591 ], [ 64.882639069493848, 19.196930927014662 ], [ 64.89659768689782, 19.214703575484858 ], [ 64.885032447629953, 19.237793408843434 ], [ 64.870182935210636, 19.276972855890769 ], [ 64.859472796087161, 19.317327911783835 ], [ 64.853005174754017, 19.358469187198573 ], [ 64.850842357940223, 19.4 ], [ 64.853005174754017, 19.44152021436123 ], [ 64.859472796087161, 19.482630101774042 ], [ 64.870182935210636, 19.522934186402349 ], [ 64.885032447629953, 19.562045037832302 ], [ 64.903878324422919, 19.599586975234097 ], [ 64.926539069493842, 19.635199648243525 ], [ 64.95279644748004, 19.668541461465878 ], [ 64.954830395095314, 19.670654442216939 ], [ 64.918014811863543, 19.683058123909813 ], [ 64.878168553212561, 19.700801856325057 ], [ 64.840361384138319, 19.722134750765072 ], [ 64.804957408346496, 19.746849965511753 ], [ 64.772297585477773, 19.774707963985435 ], [ 64.742696447480029, 19.805438879017114 ], [ 64.716439069493831, 19.838745171800923 ], [ 64.693778324422922, 19.874304557675995 ], [ 64.674932447629942, 19.911773168287692 ], [ 64.660082935210639, 19.950788917456229 ], [ 64.64937279608715, 19.990975036255833 ], [ 64.64290517475402, 20.031943741395608 ], [ 64.640742357940226, 20.0733 ], [ 64.64290517475402, 20.114645353313051 ], [ 64.64937279608715, 20.15558176169008 ], [ 64.650405392264943, 20.159451167643827 ], [ 64.642039069493848, 20.170041170283415 ], [ 64.619378324422939, 20.20552571666483 ], [ 64.600532447629959, 20.242915331961189 ], [ 64.585682935210642, 20.281848673942967 ], [ 64.574972796087152, 20.32194975357794 ], [ 64.568505174754037, 20.362831596423753 ], [ 64.566342357940243, 20.4041 ], [ 64.568505174754037, 20.445357349721736 ], [ 64.574972796087152, 20.486206455824696 ], [ 64.585682935210642, 20.526254373960757 ], [ 64.600532447629959, 20.565116172770267 ], [ 64.619378324422939, 20.60241861272203 ], [ 64.642039069493848, 20.637803701823078 ], [ 64.668296447480046, 20.670932095408535 ], [ 64.697897585477776, 20.701486309092328 ], [ 64.730557408346513, 20.729173716059748 ], [ 64.765961384138322, 20.753729302177998 ], [ 64.803768553212564, 20.774918154859492 ], [ 64.84361481186356, 20.792537664204009 ], [ 64.885116418838308, 20.80641941764323 ], [ 64.913984804012941, 20.813178773931714 ], [ 64.921639069493864, 20.825116254476413 ], [ 64.947896447480048, 20.858203649464929 ], [ 64.977497585477778, 20.888719994874389 ], [ 65.010157408346515, 20.916373040729031 ], [ 65.010421144929396, 20.916555736581248 ], [ 65.032539069493865, 20.951021636328896 ], [ 65.058796447480063, 20.984081274701019 ], [ 65.088397585477793, 21.014571983150717 ], [ 65.112430604707924, 21.034903603522476 ], [ 65.075461384138322, 21.055584098984227 ], [ 65.040057408346513, 21.080086314988801 ], [ 65.030134736841347, 21.088477070339824 ], [ 65.022373690974547, 21.089551223384181 ], [ 64.979616418838305, 21.099543652396534 ], [ 64.938114811863542, 21.113396953678023 ], [ 64.89826855321256, 21.130976652477763 ], [ 64.860461384138318, 21.152112153872082 ], [ 64.825057408346495, 21.176598434546403 ], [ 64.792397585477772, 21.204198073192384 ], [ 64.762796447480042, 21.234643597891235 ], [ 64.736539069493844, 21.26764012560557 ], [ 64.713878324422922, 21.30286826597461 ], [ 64.695032447629956, 21.339987259034135 ], [ 64.680182935210638, 21.378638314291216 ], [ 64.669472796087163, 21.418448116794075 ], [ 64.663005174754019, 21.459032464463561 ], [ 64.660842357940226, 21.5 ], [ 64.663005174754019, 21.540956000147165 ], [ 64.669472796087163, 21.581506184975318 ], [ 64.672427280162566, 21.592472757792308 ], [ 64.66973244762994, 21.597771146161822 ], [ 64.654882935210637, 21.636353812121953 ], [ 64.644172796087148, 21.676093052757473 ], [ 64.637705174754018, 21.716605338003248 ], [ 64.635542357940224, 21.7575 ], [ 64.637705174754018, 21.798383015886174 ], [ 64.644172796087148, 21.838860810381757 ], [ 64.654882935210637, 21.878544041167622 ], [ 64.66973244762994, 21.917051330725368 ], [ 64.66987953665209, 21.917339809871869 ], [ 64.666405174754033, 21.93906894321648 ], [ 64.664242357940239, 21.9799 ], [ 64.666405174754033, 22.02071931580106 ], [ 64.672872796087162, 22.061133930326328 ], [ 64.683582935210637, 22.10075511390092 ], [ 64.698432447629955, 22.139202093240538 ], [ 64.717278324422935, 22.176105688348898 ], [ 64.739939069493857, 22.211111826622677 ], [ 64.766196447480056, 22.243884901873784 ], [ 64.795797585477786, 22.274110947859572 ], [ 64.828457408346509, 22.301500598012712 ], [ 64.833755791861861, 22.305135899688267 ], [ 64.831232447629958, 22.310072339747556 ], [ 64.81638293521064, 22.348461979649986 ], [ 64.805672796087165, 22.388002072925548 ], [ 64.799205174754022, 22.428310986931457 ], [ 64.797042357940228, 22.469 ], [ 64.799205174754022, 22.509677065941901 ], [ 64.805672796087165, 22.549950597717711 ], [ 64.814004786096049, 22.580666251616886 ], [ 64.782397585477781, 22.607114802073937 ], [ 64.752796447480037, 22.637261821010586 ], [ 64.726539069493839, 22.669934390767082 ], [ 64.703878324422931, 22.704816157527045 ], [ 64.685032447629951, 22.741569620537042 ], [ 64.670182935210633, 22.779839442737849 ], [ 64.659472796087158, 22.81925592613262 ], [ 64.653005174754028, 22.859438616356538 ], [ 64.650842357940235, 22.9 ], [ 64.653005174754028, 22.940549257744838 ], [ 64.659472796087158, 22.980696036293033 ], [ 64.670182935210633, 23.02005420238207 ], [ 64.685032447629951, 23.058245542870566 ], [ 64.703878324422931, 23.094903375913834 ], [ 64.726539069493839, 23.129676039602618 ], [ 64.730430758578947, 23.13450099860033 ], [ 64.726982935210643, 23.143362814624027 ], [ 64.716272796087168, 23.182673397195394 ], [ 64.709805174754038, 23.222747951687641 ], [ 64.707642357940244, 23.2632 ], [ 64.709805174754038, 23.303639773893408 ], [ 64.716272796087168, 23.343677976856654 ], [ 64.726982935210643, 23.382929527839831 ], [ 64.74183244762996, 23.42101725094275 ], [ 64.76067832442294, 23.457575476189309 ], [ 64.783339069493863, 23.492253517877796 ], [ 64.809596447480047, 23.524718998638072 ], [ 64.839197585477777, 23.554660989214199 ], [ 64.871857408346514, 23.581792936091006 ], [ 64.907261384138323, 23.605855351360248 ], [ 64.945068553212579, 23.626618241643971 ], [ 64.984914811863561, 23.643883255430353 ], [ 65.026416418838323, 23.657485530802852 ], [ 65.042412162465766, 23.66115539553838 ], [ 65.042804357953557, 23.663576911234184 ], [ 65.015057408346507, 23.682424181336302 ], [ 64.98239758547777, 23.709529671140565 ], [ 64.95279644748004, 23.739429437319568 ], [ 64.926539069493842, 23.771833700520045 ], [ 64.903878324422919, 23.806428628215055 ], [ 64.885032447629953, 23.842879424538495 ], [ 64.870182935210636, 23.880833617079677 ], [ 64.859472796087161, 23.919924506583282 ], [ 64.853005174754017, 23.959774744193595 ], [ 64.850842357940223, 24.0 ], [ 64.853005174754017, 24.040212686179519 ], [ 64.859472796087161, 24.080025697981963 ], [ 64.870182935210636, 24.119056136146433 ], [ 64.885032447629953, 24.156928975052207 ], [ 64.903878324422919, 24.19328064196473 ], [ 64.926539069493842, 24.227762474107152 ], [ 64.95279644748004, 24.260044021935958 ], [ 64.98239758547777, 24.289816168889924 ], [ 65.015057408346507, 24.316794039980113 ], [ 65.050461384138316, 24.340719673859819 ], [ 65.088268553212558, 24.361364435424992 ], [ 65.12811481186354, 24.378531148517851 ], [ 65.167600924589379, 24.391399110054461 ], [ 65.136157408346506, 24.41263623041284 ], [ 65.103497585477768, 24.439587927003604 ], [ 65.073896447480038, 24.46931785767417 ], [ 65.047639069493854, 24.50153783688668 ], [ 65.024978324422932, 24.53593576680921 ], [ 65.006132447629952, 24.57217871199251 ], [ 64.991282935210634, 24.609916169662444 ], [ 64.980572796087159, 24.648783501678089 ], [ 64.97410517475403, 24.688405492918541 ], [ 64.971942357940236, 24.7284 ], [ 64.97410517475403, 24.768381653783877 ], [ 64.980572796087159, 24.807965579105929 ], [ 64.991282935210634, 24.84677109551771 ], [ 65.006132447629952, 24.884425363562212 ], [ 65.024978324422932, 24.920566942176503 ], [ 65.047639069493854, 24.954849224194184 ], [ 65.073896447480038, 24.986943718575031 ], [ 65.103497585477768, 25.01654314988231 ], [ 65.136157408346506, 25.043364347624784 ], [ 65.171561384138315, 25.067150900345297 ], [ 65.209368553212556, 25.087675551738393 ], [ 65.249214811863553, 25.104742318586627 ], [ 65.290716418838301, 25.118188312892304 ], [ 65.333473690974543, 25.12788525322701 ], [ 65.377074852368139, 25.133740653006669 ], [ 65.4211, 25.135698676112597 ], [ 65.465125147631852, 25.133740653006669 ], [ 65.508726309025434, 25.12788525322701 ], [ 65.55148358116169, 25.118188312892304 ], [ 65.592985188136439, 25.104742318586627 ], [ 65.632831446787421, 25.087675551738393 ], [ 65.670638615861677, 25.067150900345297 ], [ 65.706042591653485, 25.043364347624784 ], [ 65.738702414522209, 25.01654314988231 ], [ 65.747737947332439, 25.007508138026978 ], [ 65.77329644748005, 25.03873522621026 ], [ 65.781546246356598, 25.046981069031435 ], [ 65.785032447629945, 25.055808817705355 ], [ 65.803878324422939, 25.091900054853649 ], [ 65.826539069493847, 25.126134522341534 ], [ 65.852796447480031, 25.158184198105179 ], [ 65.882397585477776, 25.187742247518337 ], [ 65.915057408346513, 25.21452590813831 ], [ 65.950461384138322, 25.238279139502581 ], [ 65.988268553212563, 25.25877501531377 ], [ 66.02811481186356, 25.275817837853573 ], [ 66.069616418838294, 25.289244957049313 ], [ 66.11237369097455, 25.298928279256405 ], [ 66.155974852368132, 25.304775453499442 ], [ 66.2, 25.306730725619939 ], [ 66.244025147631859, 25.304775453499442 ], [ 66.287626309025441, 25.298928279256405 ], [ 66.330383581161684, 25.289244957049313 ], [ 66.371885188136446, 25.275817837853573 ], [ 66.411731446787428, 25.25877501531377 ], [ 66.44953861586167, 25.238279139502581 ], [ 66.484942591653478, 25.21452590813831 ], [ 66.517602414522216, 25.187742247518337 ], [ 66.530892203306394, 25.174471803875146 ], [ 66.532483581161685, 25.174111059948476 ], [ 66.573985188136433, 25.160671223214141 ], [ 66.60587218965307, 25.147019779867573 ], [ 66.642074852368125, 25.151880879029207 ], [ 66.6861, 25.153838611187883 ], [ 66.730125147631853, 25.151880879029207 ], [ 66.773726309025434, 25.146026349190759 ], [ 66.816483581161677, 25.136330849121297 ], [ 66.857985188136439, 25.122886851059903 ], [ 66.887555445784884, 25.110223333141448 ], [ 66.909173690974555, 25.115126656215484 ], [ 66.952774852368137, 25.120982667471537 ], [ 66.9968, 25.122940895082539 ], [ 67.040825147631864, 25.120982667471537 ], [ 67.084426309025432, 25.115126656215484 ], [ 67.127183581161688, 25.105428703527412 ], [ 67.157876759144344, 25.095483465414841 ], [ 67.172232447629952, 25.131812338825892 ], [ 67.191078324422918, 25.167881147677207 ], [ 67.21373906949384, 25.202094312890754 ], [ 67.239996447480038, 25.234124021303927 ], [ 67.269597585477783, 25.263663634638394 ], [ 67.302257408346492, 25.290430572200307 ], [ 67.337661384138315, 25.314168958766885 ], [ 67.375468553212556, 25.334652015021192 ], [ 67.415314811863553, 25.351684170398865 ], [ 67.456816418838301, 25.365102880790754 ], [ 67.499573690974557, 25.374780136183322 ], [ 67.543174852368125, 25.380623645994838 ], [ 67.5872, 25.382577692567736 ], [ 67.631225147631852, 25.380623645994838 ], [ 67.674826309025434, 25.374780136183322 ], [ 67.717583581161691, 25.365102880790754 ], [ 67.759085188136424, 25.351684170398865 ], [ 67.798931446787421, 25.334652015021192 ], [ 67.836738615861677, 25.314168958766885 ], [ 67.872142591653486, 25.290430572200307 ], [ 67.904802414522209, 25.263663634638394 ], [ 67.934403552519939, 25.234124021303927 ], [ 67.960660930506137, 25.202094312890754 ], [ 67.983321675577059, 25.167881147677207 ], [ 68.00216755237004, 25.131812338825892 ], [ 68.017017064789357, 25.09423378190483 ], [ 68.027727203912832, 25.055506179927619 ], [ 68.028752123079443, 25.049245920805394 ], [ 68.048574852368134, 25.051909786791136 ], [ 68.0926, 25.053869119924975 ], [ 68.136625147631861, 25.051909786791136 ], [ 68.180226309025443, 25.04605046998951 ], [ 68.222983581161685, 25.036347044681619 ], [ 68.264485188136433, 25.022892062049927 ], [ 68.299892394445507, 25.007716477783937 ], [ 68.3, 25.007721268555759 ], [ 68.344025147631868, 25.005761198392825 ], [ 68.37931608410058, 25.001016862638004 ], [ 68.413473690974556, 25.008771016601624 ], [ 68.457074852368137, 25.014632113822259 ], [ 68.5011, 25.016592042408426 ], [ 68.54512514763185, 25.014632113822259 ], [ 68.588726309025432, 25.008771016601624 ], [ 68.631483581161689, 24.999064643657167 ], [ 68.662144276746403, 24.989121308433923 ], [ 68.670182935210633, 25.018206925763486 ], [ 68.685032447629951, 25.055808817705355 ], [ 68.703878324422917, 25.091900054853649 ], [ 68.726539069493839, 25.126134522341534 ], [ 68.752796447480037, 25.158184198105179 ], [ 68.782397585477767, 25.187742247518337 ], [ 68.81505740834649, 25.21452590813831 ], [ 68.850461384138313, 25.238279139502581 ], [ 68.888268553212555, 25.25877501531377 ], [ 68.928114811863537, 25.275817837853573 ], [ 68.969616418838299, 25.289244957049313 ], [ 69.012373690974542, 25.298928279256405 ], [ 69.055974852368124, 25.304775453499442 ], [ 69.1, 25.306730725619939 ], [ 69.144025147631837, 25.304775453499442 ], [ 69.187626309025433, 25.298928279256405 ], [ 69.230383581161689, 25.289244957049313 ], [ 69.271885188136423, 25.275817837853573 ], [ 69.311731446787419, 25.25877501531377 ], [ 69.349538615861661, 25.238279139502581 ], [ 69.38494259165347, 25.21452590813831 ], [ 69.401217290102991, 25.201179356881244 ], [ 69.430483581161695, 25.194546195622355 ], [ 69.471985188136443, 25.18110861216568 ], [ 69.511831446787426, 25.164052515010468 ], [ 69.549638615861667, 25.143540686121696 ], [ 69.561196977153656, 25.135779920710704 ], [ 69.581596447480038, 25.160678943266415 ], [ 69.611197585477768, 25.190236387849179 ], [ 69.643857408346506, 25.217019499836333 ], [ 69.679261384138314, 25.240772244186786 ], [ 69.717068553212556, 25.261267699425531 ], [ 69.756914811863552, 25.278310172006151 ], [ 69.798416418838301, 25.291737015332657 ], [ 69.841173690974557, 25.301420138504422 ], [ 69.884774852368139, 25.307267192527558 ], [ 69.896671118991975, 25.307795526023465 ], [ 69.929616418838307, 25.318451833802389 ], [ 69.97237369097455, 25.328132822168548 ], [ 70.015974852368146, 25.33397858674202 ], [ 70.06, 25.335933387406715 ], [ 70.104025147631859, 25.33397858674202 ], [ 70.147626309025441, 25.328132822168548 ], [ 70.190383581161697, 25.318451833802389 ], [ 70.231885188136445, 25.305027949384712 ], [ 70.271731446787427, 25.287989230386245 ], [ 70.309538615861683, 25.267498286114339 ], [ 70.344942591653492, 25.243750765369974 ], [ 70.351156584945059, 25.238656019066639 ], [ 70.388268553212555, 25.25877501531377 ], [ 70.428114811863551, 25.275817837853573 ], [ 70.469616418838299, 25.289244957049313 ], [ 70.512373690974542, 25.298928279256405 ], [ 70.555974852368124, 25.304775453499442 ], [ 70.6, 25.306730725619939 ], [ 70.634407459884955, 25.305202600203692 ], [ 70.662116418838309, 25.314165506695897 ], [ 70.704873690974566, 25.32384683772813 ], [ 70.748474852368147, 25.329692809276217 ], [ 70.776737041232153, 25.330947748893653 ], [ 70.784474852368135, 25.331985202156329 ], [ 70.8285, 25.333940035018401 ], [ 70.872525147631862, 25.331985202156329 ], [ 70.916126309025444, 25.326139341311539 ], [ 70.9588835811617, 25.31645819355909 ], [ 70.990289993502898, 25.306299478798181 ], [ 71.0, 25.306730725619939 ], [ 71.044025147631856, 25.304775453499442 ], [ 71.087626309025438, 25.298928279256405 ], [ 71.097394973770221, 25.296715950837619 ], [ 71.134468553212557, 25.316804525097901 ], [ 71.174314811863553, 25.333839192250398 ], [ 71.215816418838301, 25.347259882644121 ], [ 71.258573690974558, 25.356938566574556 ], [ 71.30217485236814, 25.362782939240294 ], [ 71.3462, 25.364737274389647 ], [ 71.390225147631853, 25.362782939240294 ], [ 71.433826309025434, 25.356938566574556 ], [ 71.476583581161691, 25.347259882644121 ], [ 71.518085188136439, 25.333839192250398 ], [ 71.557931446787421, 25.316804525097901 ], [ 71.595738615861677, 25.296318450245042 ], [ 71.617933307844524, 25.28143470491953 ], [ 71.637583581161678, 25.276984019553968 ], [ 71.67908518813644, 25.263555543450412 ], [ 71.718931446787423, 25.246510999579751 ], [ 71.743155457002985, 25.233377447709639 ], [ 71.750461384138319, 25.238279139502581 ], [ 71.788268553212561, 25.25877501531377 ], [ 71.828114811863543, 25.275817837853573 ], [ 71.869616418838291, 25.289244957049313 ], [ 71.912373690974547, 25.298928279256405 ], [ 71.937064099247522, 25.302239409388939 ], [ 71.966161384138317, 25.321747935687434 ], [ 72.003968553212559, 25.342229709702693 ], [ 72.043814811863541, 25.359260798130258 ], [ 72.085316418838289, 25.372678667458597 ], [ 72.128073690974546, 25.382355316038229 ], [ 72.171674852368128, 25.388198459327445 ], [ 72.2157, 25.390152383319162 ], [ 72.259725147631855, 25.388198459327445 ], [ 72.303326309025437, 25.382355316038229 ], [ 72.346083581161679, 25.372678667458597 ], [ 72.387585188136427, 25.359260798130258 ], [ 72.427431446787423, 25.342229709702693 ], [ 72.465238615861665, 25.321747935687434 ], [ 72.500642591653474, 25.298011033931889 ], [ 72.525459960484952, 25.277672789813366 ], [ 72.540383581161691, 25.274292591860288 ], [ 72.548190894442854, 25.271766360894787 ], [ 72.564316418838303, 25.276984019553968 ], [ 72.600437546883455, 25.285165268403965 ], [ 72.607957408346508, 25.291328258745569 ], [ 72.643361384138316, 25.315066469500888 ], [ 72.681168553212558, 25.335549373929751 ], [ 72.721014811863554, 25.35258140297357 ], [ 72.762516418838302, 25.366000013778034 ], [ 72.805273690974545, 25.375677197319977 ], [ 72.848874852368127, 25.381520663732847 ], [ 72.8929, 25.383474695791332 ], [ 72.936925147631854, 25.381520663732847 ], [ 72.980526309025436, 25.375677197319977 ], [ 73.023283581161692, 25.366000013778034 ], [ 73.06478518813644, 25.35258140297357 ], [ 73.091016541270989, 25.341368978430538 ], [ 73.101673690974565, 25.343781630098448 ], [ 73.145274852368146, 25.349626638697107 ], [ 73.1893, 25.351581186530467 ], [ 73.233325147631859, 25.349626638697107 ], [ 73.276926309025441, 25.343781630098448 ], [ 73.319683581161684, 25.334101893320394 ], [ 73.326505551700052, 25.331895580931 ], [ 73.366574852368146, 25.337267670235736 ], [ 73.4106, 25.339222417769591 ], [ 73.454625147631859, 25.337267670235736 ], [ 73.498226309025441, 25.331422064525352 ], [ 73.540983581161683, 25.321741339172096 ], [ 73.559017937203336, 25.315908202713711 ], [ 73.564416418838306, 25.317654377761695 ], [ 73.607173690974562, 25.327335429883778 ], [ 73.650774852368144, 25.333181232966623 ], [ 73.6948, 25.335136046510552 ], [ 73.728958124839764, 25.33361935051602 ], [ 73.754473690974564, 25.339395979925953 ], [ 73.798074852368146, 25.345241200433996 ], [ 73.836487281853351, 25.346946626928233 ], [ 73.876916418838306, 25.360019125391815 ], [ 73.919673690974548, 25.369696787893254 ], [ 73.96327485236813, 25.375540543603449 ], [ 74.0073, 25.37749467241569 ], [ 74.051325147631857, 25.375540543603449 ], [ 74.057146087932026, 25.374760377386988 ], [ 74.099073690974564, 25.38424910991133 ], [ 74.142674852368145, 25.390092161554069 ], [ 74.1867, 25.392046054895168 ], [ 74.230725147631858, 25.390092161554069 ], [ 74.27432630902544, 25.38424910991133 ], [ 74.317083581161697, 25.374572613061279 ], [ 74.358585188136445, 25.361154954035364 ], [ 74.398431446787441, 25.344124132391727 ], [ 74.436238615861683, 25.323642678992059 ], [ 74.449383609373356, 25.314829642256019 ], [ 74.4892, 25.316597848436519 ], [ 74.533225147631853, 25.314642735556749 ], [ 74.576826309025435, 25.308796037449106 ], [ 74.619583581161677, 25.299113503528933 ], [ 74.66108518813644, 25.285687476923755 ], [ 74.673538551265153, 25.280361426139656 ], [ 74.702257408346512, 25.303895862267254 ], [ 74.73766138413832, 25.327631611054905 ], [ 74.775468553212562, 25.348112389401386 ], [ 74.815314811863558, 25.36514264933399 ], [ 74.856816418838307, 25.378559865570168 ], [ 74.899573690974563, 25.388236042955089 ], [ 74.943174852368131, 25.394078901637066 ], [ 74.9872, 25.396032730443604 ], [ 75.031225147631872, 25.394078901637066 ], [ 75.07482630902544, 25.388236042955089 ], [ 75.117583581161696, 25.378559865570168 ], [ 75.159085188136444, 25.36514264933399 ], [ 75.180278632783072, 25.356084587588199 ], [ 75.1866, 25.356365220963557 ], [ 75.230625147631855, 25.354410750457955 ], [ 75.274226309025437, 25.348565973072095 ], [ 75.316983581161679, 25.338886619088846 ], [ 75.358485188136427, 25.325464999979577 ], [ 75.398331446787424, 25.308429154685111 ], [ 75.436138615861651, 25.28794166396662 ], [ 75.471542591653488, 25.264198142370283 ], [ 75.504202414522197, 25.237425420052972 ], [ 75.530151697114704, 25.21152448134054 ], [ 75.555725147631861, 25.210387814290851 ], [ 75.599326309025443, 25.204536094237103 ], [ 75.642083581161685, 25.194845246019828 ], [ 75.683585188136433, 25.181407695550593 ], [ 75.705215645701173, 25.172148851858307 ], [ 75.72686855321254, 25.183894467472857 ], [ 75.766714811863551, 25.20094778779178 ], [ 75.797253087258866, 25.210834002016956 ], [ 75.813997585477793, 25.227548662036586 ], [ 75.846657408346516, 25.25432356043488 ], [ 75.882061384138339, 25.278069013703593 ], [ 75.919868553212581, 25.298558172560369 ], [ 75.938893536384413, 25.306692765087011 ], [ 75.943757408346499, 25.31067837216278 ], [ 75.979161384138322, 25.334412791796368 ], [ 76.016968553212564, 25.354892422325317 ], [ 76.056814811863546, 25.371921727160387 ], [ 76.098316418838309, 25.385338190505365 ], [ 76.141073690974551, 25.395013824692356 ], [ 76.184674852368133, 25.400856355276346 ], [ 76.2287, 25.402810074352498 ], [ 76.27272514763186, 25.400856355276346 ], [ 76.316326309025442, 25.395013824692356 ], [ 76.359083581161684, 25.385338190505365 ], [ 76.400585188136446, 25.371921727160387 ], [ 76.440431446787429, 25.354892422325317 ], [ 76.443908570978863, 25.353008911327599 ], [ 76.467873690974542, 25.358433671659672 ], [ 76.511474852368138, 25.36427797204087 ], [ 76.534927331493776, 25.365319046058634 ], [ 76.57341641883832, 25.377762415219326 ], [ 76.616173690974549, 25.387438656501008 ], [ 76.65977485236813, 25.393281553777395 ], [ 76.7038, 25.395235395491596 ], [ 76.747825147631872, 25.393281553777395 ], [ 76.791426309025454, 25.387438656501008 ], [ 76.834183581161682, 25.377762415219326 ], [ 76.875685188136444, 25.364345110420018 ], [ 76.911242457785519, 25.349147860792709 ], [ 76.924516418838309, 25.353440143263153 ], [ 76.967273690974551, 25.363118332498658 ], [ 77.010874852368133, 25.368962406362616 ], [ 77.0549, 25.370916641579491 ], [ 77.076170858980518, 25.369972448000393 ], [ 77.102116418838321, 25.378360502989544 ], [ 77.144873690974549, 25.388036696348827 ], [ 77.188474852368131, 25.393879564679505 ], [ 77.2325, 25.395833396712998 ], [ 77.276525147631872, 25.393879564679505 ], [ 77.320126309025454, 25.388036696348827 ], [ 77.362883581161682, 25.378360502989544 ], [ 77.404385188136445, 25.364943264612336 ], [ 77.444231446787441, 25.34791297659222 ], [ 77.482038615861669, 25.327432164490727 ], [ 77.517442591653506, 25.303696376615338 ], [ 77.550102414522215, 25.276932366555435 ], [ 77.556310002319776, 25.270738357764504 ], [ 77.557457408346494, 25.27167888003568 ], [ 77.592861384138331, 25.295420937775688 ], [ 77.607833868534868, 25.303533941611427 ], [ 77.612657408346507, 25.307486603349503 ], [ 77.64806138413833, 25.331221648508659 ], [ 77.685868553212558, 25.351701819222669 ], [ 77.725714811863554, 25.368731573545013 ], [ 77.767216418838316, 25.382148391215051 ], [ 77.809973690974559, 25.391824281041409 ], [ 77.853574852368141, 25.39766696603461 ], [ 77.8976, 25.399620736751977 ], [ 77.941625147631868, 25.39766696603461 ], [ 77.98522630902545, 25.391824281041409 ], [ 78.027983581161678, 25.382148391215051 ], [ 78.06948518813644, 25.368731573545013 ], [ 78.109331446787422, 25.351701819222669 ], [ 78.147138615861678, 25.331221648508659 ], [ 78.182542591653501, 25.307486603349503 ], [ 78.196458371394058, 25.296083282907688 ], [ 78.227942591653502, 25.274970402908451 ], [ 78.260602414522211, 25.248200055402549 ], [ 78.290203552519941, 25.218656682820349 ], [ 78.316460930506153, 25.186622902913552 ], [ 78.339121675577061, 25.152405393995352 ], [ 78.357967552370042, 25.116332011823154 ], [ 78.372817064789359, 25.078748696680307 ], [ 78.383527203912834, 25.040016197959567 ], [ 78.389994825245978, 25.000506645647199 ], [ 78.392157642059757, 24.9606 ], [ 78.389994825245978, 24.920680412364373 ], [ 78.389031201901091, 24.914788097507298 ], [ 78.393667552370047, 24.905898308739335 ], [ 78.408517064789365, 24.868250584531992 ], [ 78.41922720391284, 24.829451802325543 ], [ 78.425694825245984, 24.789874736139879 ], [ 78.427857642059763, 24.7499 ], [ 78.425694825245984, 24.70991240231487 ], [ 78.420543242726282, 24.678358182087116 ], [ 78.423194825245986, 24.662115773196462 ], [ 78.425357642059765, 24.6221 ], [ 78.423194825245986, 24.582071414390303 ], [ 78.417301397228471, 24.545936333428109 ], [ 78.423817064789361, 24.529372239466614 ], [ 78.434527203912836, 24.490467849341723 ], [ 78.44099482524598, 24.450783217601902 ], [ 78.443157642059759, 24.4107 ], [ 78.44099482524598, 24.370604051815715 ], [ 78.434527203912836, 24.330881717587147 ], [ 78.423817064789361, 24.291916102035792 ], [ 78.408967552370044, 24.254083358483079 ], [ 78.390121675577063, 24.217749031409394 ], [ 78.37884106297895, 24.200582483987215 ], [ 78.382794825245966, 24.176270010644554 ], [ 78.384957642059746, 24.1361 ], [ 78.383451618516148, 24.108119825115118 ], [ 78.39362167557708, 24.092632310954787 ], [ 78.412467552370046, 24.056252030969887 ], [ 78.427317064789364, 24.018349424805276 ], [ 78.438027203912839, 23.979288355627165 ], [ 78.444494825245982, 23.939444146867711 ], [ 78.446657642059776, 23.8992 ], [ 78.444494825245982, 23.858943323405555 ], [ 78.438027203912839, 23.819062007005328 ], [ 78.427317064789364, 23.779940678380921 ], [ 78.413871944595343, 23.745549284346421 ], [ 78.422717064789367, 23.722920964215838 ], [ 78.433427203912842, 23.683770734255692 ], [ 78.439894825245986, 23.643835719112637 ], [ 78.442057642059765, 23.6035 ], [ 78.439894825245986, 23.56315186910216 ], [ 78.433427203912842, 23.523180095610389 ], [ 78.422717064789367, 23.483970173423096 ], [ 78.416483608109289, 23.467989506118261 ], [ 78.42561706478935, 23.444573894706686 ], [ 78.436327203912839, 23.405340611871448 ], [ 78.442794825245983, 23.365321013378999 ], [ 78.444957642059762, 23.3249 ], [ 78.442794825245983, 23.284466687166979 ], [ 78.436327203912839, 23.244410663002427 ], [ 78.42561706478935, 23.205118228177209 ], [ 78.422552962437081, 23.197246306454673 ], [ 78.428694825245955, 23.159183527115239 ], [ 78.430857642059749, 23.1187 ], [ 78.428694825245955, 23.078204257319996 ], [ 78.422227203912826, 23.038086487370649 ], [ 78.411517064789351, 22.998733582025579 ], [ 78.401650493003416, 22.973346628959487 ], [ 78.400194825245947, 22.946064537964894 ], [ 78.393727203912817, 22.905907484570591 ], [ 78.383736699455227, 22.869162889494469 ], [ 78.389067552370051, 22.858778329186137 ], [ 78.403917064789368, 22.82053066784562 ], [ 78.414627203912843, 22.781114553143841 ], [ 78.421094825245987, 22.740908762117908 ], [ 78.423257642059767, 22.7003 ], [ 78.421094825245987, 22.659679194477093 ], [ 78.414753041934091, 22.620220698667637 ], [ 78.415417064789352, 22.618507856272629 ], [ 78.426127203912841, 22.579033554300818 ], [ 78.432594825245971, 22.538768509009639 ], [ 78.434757642059751, 22.4981 ], [ 78.432594825245971, 22.457419531707917 ], [ 78.426127203912841, 22.417119068186402 ], [ 78.415417064789352, 22.377587250220088 ], [ 78.404338361817452, 22.348952064063191 ], [ 78.408517064789365, 22.338151265145818 ], [ 78.41922720391284, 22.29859702754564 ], [ 78.425694825245984, 22.258250582923296 ], [ 78.427857642059763, 22.2175 ], [ 78.425694825245984, 22.176737575520246 ], [ 78.41922720391284, 22.136356061321223 ], [ 78.408517064789365, 22.096744873908918 ], [ 78.393667552370047, 22.058286323422269 ], [ 78.374821675577081, 22.021351899163751 ], [ 78.355954686184845, 21.992167099583249 ], [ 78.373360930506152, 21.970404440443357 ], [ 78.39602167557706, 21.935338606693747 ], [ 78.414867552370026, 21.898372177967168 ], [ 78.429717064789344, 21.859859843713533 ], [ 78.440427203912833, 21.820171423007881 ], [ 78.446894825245963, 21.779688343914675 ], [ 78.449057642059742, 21.7388 ], [ 78.446894825245963, 21.697900017983887 ], [ 78.440427203912833, 21.657382471860174 ], [ 78.429717064789344, 21.617638079823475 ], [ 78.414867552370026, 21.579050421004737 ], [ 78.39602167557706, 21.541992209300851 ], [ 78.373360930506152, 21.50682166147115 ], [ 78.34710355251994, 21.473878996148024 ], [ 78.337156481399319, 21.463664856876761 ], [ 78.336727203912815, 21.460971924748751 ], [ 78.32601706478934, 21.421173712897172 ], [ 78.318759447509137, 21.402288713233165 ], [ 78.325127203912842, 21.378619631601019 ], [ 78.331594825245986, 21.338012954440803 ], [ 78.333757642059766, 21.297 ], [ 78.331594825245986, 21.255975598114432 ], [ 78.325127203912842, 21.215335018566627 ], [ 78.314417064789367, 21.175470156576161 ], [ 78.29956755237005, 21.136765738488503 ], [ 78.280721675577084, 21.099595585044273 ], [ 78.258060930506161, 21.064318969485633 ], [ 78.231803552519949, 21.031277107218145 ], [ 78.202355379736517, 21.000947357256024 ], [ 78.203557642059778, 20.9781 ], [ 78.201394825245984, 20.936987305368376 ], [ 78.196697004276928, 20.907404202122795 ], [ 78.198442591653489, 20.906194915080221 ], [ 78.231102414522198, 20.878539993399816 ], [ 78.260703552519942, 20.848021580687227 ], [ 78.286960930506154, 20.814931947486084 ], [ 78.309621675577063, 20.779588193823852 ], [ 78.310274481185857, 20.77829757498839 ], [ 78.332060930506159, 20.750830551684587 ], [ 78.354721675577068, 20.71547179999785 ], [ 78.373567552370048, 20.678197077924398 ], [ 78.388417064789365, 20.639364104765303 ], [ 78.399127203912826, 20.599345837699179 ], [ 78.40559482524597, 20.558526918975851 ], [ 78.407757642059764, 20.5173 ], [ 78.40559482524597, 20.476061976668689 ], [ 78.399127203912826, 20.435210171640474 ], [ 78.388417064789365, 20.395138500200083 ], [ 78.373567552370048, 20.356233657013988 ], [ 78.354721675577068, 20.318871361322991 ], [ 78.332060930506159, 20.283412697970526 ], [ 78.305803552519947, 20.250200591104207 ], [ 78.282120794020827, 20.225683362127796 ], [ 78.281427203912827, 20.221296329817566 ], [ 78.270717064789352, 20.181169246962504 ], [ 78.25586755237002, 20.142210706201368 ], [ 78.237412598319267, 20.105573014336667 ], [ 78.246060930506161, 20.094623092650508 ], [ 78.268721675577069, 20.059113355572009 ], [ 78.287567552370035, 20.021679739116674 ], [ 78.302417064789353, 19.982681526499565 ], [ 78.313127203912842, 19.9424932940194 ], [ 78.319594825245971, 19.901501341581 ], [ 78.321757642059765, 19.8601 ], [ 78.319594825245971, 19.818687849648171 ], [ 78.316623784425218, 19.799842610655201 ], [ 78.324560930506152, 19.789773709192172 ], [ 78.347221675577075, 19.754195413857808 ], [ 78.366067552370026, 19.716689651912482 ], [ 78.380917064789344, 19.677616417235111 ], [ 78.390128313722542, 19.642986187197767 ], [ 78.404417064789342, 19.605371533328547 ], [ 78.415127203912817, 19.565088031364869 ], [ 78.421594825245947, 19.523999096125468 ], [ 78.423757642059741, 19.4825 ], [ 78.421594825245947, 19.440990267517485 ], [ 78.415127203912817, 19.399869831982752 ], [ 78.404417064789342, 19.359535176399902 ], [ 78.389567552370025, 19.320375496213071 ], [ 78.370721675577045, 19.282768921617237 ], [ 78.348060930506136, 19.247078837013813 ], [ 78.321803552519938, 19.213650334594558 ], [ 78.300460278576267, 19.191411284303339 ], [ 78.314967552370035, 19.162441080092734 ], [ 78.329817064789353, 19.123234346900997 ], [ 78.340527203912842, 19.082831650825629 ], [ 78.346994825245972, 19.041621384971421 ], [ 78.349157642059751, 19.0 ], [ 78.346994825245972, 18.958368201668183 ], [ 78.340527203912842, 18.917127095938607 ], [ 78.329817064789353, 18.876674318706719 ], [ 78.314967552370035, 18.837400187779878 ], [ 78.296121675577069, 18.799683914952897 ], [ 78.273460930506147, 18.763889915832312 ], [ 78.247203552519949, 18.730364254455992 ], [ 78.240714363231405, 18.723583094065042 ], [ 78.251803552519945, 18.71199582482517 ], [ 78.278060930506143, 18.67845987036668 ], [ 78.300721675577051, 18.642640194435224 ], [ 78.319567552370017, 18.604880443822307 ], [ 78.334417064789349, 18.565543117429939 ], [ 78.345127203912824, 18.525006119112604 ], [ 78.351594825245954, 18.483659153759451 ], [ 78.353757642059747, 18.4419 ], [ 78.351594825245954, 18.400130694496987 ], [ 78.345127203912824, 18.358753664064739 ], [ 78.336042845915316, 18.324328702275782 ], [ 78.353660930506166, 18.301777295599056 ], [ 78.376321675577074, 18.26587885751184 ], [ 78.395167552370026, 18.228036238765934 ], [ 78.410017064789344, 18.188612756714541 ], [ 78.420727203912833, 18.147987161742506 ], [ 78.427194825245977, 18.106550024544294 ], [ 78.429357642059756, 18.0647 ], [ 78.427194825245977, 18.022840002717711 ], [ 78.426407077937512, 18.017789419560941 ], [ 78.42691706478935, 18.016434140124794 ], [ 78.437627203912839, 17.975768659929688 ], [ 78.444094825245983, 17.934290930082355 ], [ 78.446257642059763, 17.8924 ], [ 78.444094825245983, 17.85049917952416 ], [ 78.437627203912839, 17.808992158603981 ], [ 78.42691706478935, 17.768279112368255 ], [ 78.412067552370033, 17.728752829453523 ], [ 78.393221675577081, 17.690794901632032 ], [ 78.370560930506159, 17.654772012558151 ], [ 78.344303552519946, 17.621032362813601 ], [ 78.314702414522202, 17.589902267376885 ], [ 78.282042591653493, 17.56168296017163 ], [ 78.246638615861656, 17.536647638472463 ], [ 78.208831446787428, 17.515038777680125 ], [ 78.168985188136446, 17.497065744342262 ], [ 78.127483581161684, 17.482902732320952 ], [ 78.108339392755994, 17.478328748589423 ], [ 78.094508380053099, 17.456317496093661 ], [ 78.092694825245985, 17.421099114682715 ], [ 78.086227203912856, 17.379493196599782 ], [ 78.077049807674214, 17.344523716451274 ], [ 78.09038358116166, 17.341335682322001 ], [ 78.131885188136422, 17.327160592103606 ], [ 78.171731446787419, 17.309169065464108 ], [ 78.209538615861661, 17.287533280621606 ], [ 78.244942591653484, 17.262460360608447 ], [ 78.277602414522207, 17.23419042723901 ], [ 78.307203552519937, 17.202994341174659 ], [ 78.333460930506149, 17.169171147751694 ], [ 78.356121675577057, 17.133045251013545 ], [ 78.374967552370023, 17.094963341037325 ], [ 78.389817064789341, 17.055291102137229 ], [ 78.400527203912816, 17.014409731834647 ], [ 78.40699482524596, 16.972712302573651 ], [ 78.409157642059753, 16.9306 ], [ 78.40699482524596, 16.888478273178425 ], [ 78.400527203912816, 16.846752933366638 ], [ 78.389817064789341, 16.805826238866796 ], [ 78.374967552370023, 16.766093004010592 ], [ 78.356121675577057, 16.727936770482611 ], [ 78.333460930506149, 16.691726078932316 ], [ 78.308113093802888, 16.658985682254585 ], [ 78.322103552519948, 16.644197540543587 ], [ 78.348360930506161, 16.610273923695285 ], [ 78.371021675577083, 16.57404098271369 ], [ 78.389867552370035, 16.535846474331926 ], [ 78.404717064789352, 16.496057198687122 ], [ 78.415427203912841, 16.455055506332375 ], [ 78.421894825245985, 16.413235647844278 ], [ 78.424057642059765, 16.371 ], [ 78.421894825245985, 16.328755204045251 ], [ 78.415427203912841, 16.286908252806402 ], [ 78.404717064789352, 16.245862564287854 ], [ 78.389867552370035, 16.206014079915899 ], [ 78.371021675577083, 16.167747425721913 ], [ 78.348360930506161, 16.131432174486203 ], [ 78.322103552519948, 16.0974192461806 ], [ 78.292502414522218, 16.066037482948712 ], [ 78.259842591653509, 16.037590433353039 ], [ 78.224438615861672, 16.012353378706536 ], [ 78.18663144678743, 15.990570632010046 ], [ 78.146785188136448, 15.972453137359024 ], [ 78.105283581161686, 15.958176394691364 ], [ 78.062526309025458, 15.947878731456639 ], [ 78.045468697712224, 15.945445820562094 ], [ 78.042217064789341, 15.932964547469597 ], [ 78.027367552370009, 15.893053321083043 ], [ 78.022599040797871, 15.883355623607304 ], [ 78.030583581161679, 15.881431990376457 ], [ 78.072085188136441, 15.867148776882159 ], [ 78.111931446787423, 15.849020146526989 ], [ 78.149738615861665, 15.827219679912 ], [ 78.185142591653502, 15.801956179688533 ], [ 78.217802414522211, 15.773471704791824 ], [ 78.247403552519941, 15.742039287978795 ], [ 78.273660930506153, 15.707960356698177 ], [ 78.296321675577062, 15.671561880127195 ], [ 78.315167552370042, 15.63319326787861 ], [ 78.330017064789359, 15.593223048385632 ], [ 78.340727203912834, 15.552035357281015 ], [ 78.347194825245978, 15.510026268167593 ], [ 78.349357642059758, 15.4676 ], [ 78.347194825245978, 15.42516503682911 ], [ 78.340727203912834, 15.383130196872882 ], [ 78.330017064789359, 15.341900688741751 ], [ 78.318975723635347, 15.312139025150032 ], [ 78.334821675577075, 15.286639254123596 ], [ 78.353667552370027, 15.248199277893033 ], [ 78.368517064789344, 15.208154899618323 ], [ 78.379227203912833, 15.166890987488509 ], [ 78.385694825245977, 15.124804362879612 ], [ 78.387857642059757, 15.0823 ], [ 78.386393591609092, 15.05352226240403 ], [ 78.396527203912839, 15.014451529576336 ], [ 78.402994825245983, 14.972334741825458 ], [ 78.405157642059763, 14.9298 ], [ 78.402994825245983, 14.887256837043653 ], [ 78.396527203912839, 14.845115109541819 ], [ 78.385817064789364, 14.80378104407378 ], [ 78.38362467448124, 14.797856562932663 ], [ 78.385294825245964, 14.786971268904637 ], [ 78.387457642059758, 14.7444 ], [ 78.385294825245964, 14.701820405071453 ], [ 78.378827203912834, 14.65964269029207 ], [ 78.368117064789359, 14.618273424851246 ], [ 78.353267552370028, 14.578111610128691 ], [ 78.334421675577062, 14.539544813539743 ], [ 78.311760930506153, 14.502945405257517 ], [ 78.285503552519955, 14.468666935284627 ], [ 78.255902414522211, 14.437040687202392 ], [ 78.247707851851189, 14.429847637758439 ], [ 78.268421675577073, 14.39637664748958 ], [ 78.287267552370039, 14.357778271764889 ], [ 78.302117064789357, 14.317569311616525 ], [ 78.312827203912832, 14.276136263259273 ], [ 78.319294825245976, 14.233877609072991 ], [ 78.321457642059755, 14.1912 ], [ 78.319294825245976, 14.148514350741904 ], [ 78.312827203912832, 14.106231885001645 ], [ 78.302117064789357, 14.064760168847526 ], [ 78.287267552370039, 14.024499170732923 ], [ 78.268421675577073, 13.985837386770724 ], [ 78.245760930506151, 13.949148069522852 ], [ 78.224804351993683, 13.921722641264569 ], [ 78.226003552519941, 13.920438474389377 ], [ 78.252260930506154, 13.886071735398813 ], [ 78.264792467906346, 13.865773550498172 ], [ 78.276642591653498, 13.857241157672048 ], [ 78.309302414522207, 13.828499769376315 ], [ 78.338903552519938, 13.796784415973669 ], [ 78.36516093050615, 13.762399396173327 ], [ 78.387821675577072, 13.725674767993771 ], [ 78.406667552370038, 13.686963212318281 ], [ 78.421517064789356, 13.646636674771914 ], [ 78.432227203912831, 13.605082816780026 ], [ 78.438694825245975, 13.562701308735635 ], [ 78.440857642059754, 13.5199 ], [ 78.438694825245975, 13.477091001956509 ], [ 78.432227203912831, 13.434686721505084 ], [ 78.421517064789356, 13.393095883196864 ], [ 78.410286281685927, 13.362559020697748 ], [ 78.417927203912839, 13.332879496610756 ], [ 78.424394825245983, 13.290449811533875 ], [ 78.426557642059763, 13.2476 ], [ 78.424394825245983, 13.204742642699484 ], [ 78.417927203912839, 13.162290610322691 ], [ 78.407217064789364, 13.120653081296224 ], [ 78.392367552370047, 13.080231587048749 ], [ 78.373521675577081, 13.041416123519319 ], [ 78.350860930506173, 13.004581367253252 ], [ 78.324603552519946, 12.970083033652225 ], [ 78.29500241452223, 12.93825441375825 ], [ 78.285606735250241, 12.929954385223178 ], [ 78.287257642059757, 12.8972 ], [ 78.285094825245977, 12.854281838029198 ], [ 78.278627203912833, 12.811769769768096 ], [ 78.267917064789359, 12.770073544052879 ], [ 78.253067552370027, 12.729595244855783 ], [ 78.234221675577075, 12.690725397955877 ], [ 78.211560930506167, 12.653839182590156 ], [ 78.185303552519954, 12.619292785669634 ], [ 78.15570241452221, 12.58741993494791 ], [ 78.137991676186886, 12.571752793640773 ], [ 78.15281706478936, 12.531308851972057 ], [ 78.163527203912835, 12.489566785524755 ], [ 78.169994825245979, 12.446993928900371 ], [ 78.172157642059759, 12.404 ], [ 78.169994825245979, 12.36099897430106 ], [ 78.163527203912835, 12.318405100026318 ], [ 78.15281706478936, 12.276628902828479 ], [ 78.137967552370043, 12.236073218786611 ], [ 78.133932349936927, 12.22773470423075 ], [ 78.156985188136446, 12.21967337060441 ], [ 78.196831446787442, 12.201253838799063 ], [ 78.234638615861684, 12.179104046023253 ], [ 78.270042591653507, 12.153436405544319 ], [ 78.30270241452223, 12.1244971360261 ], [ 78.332303552519946, 12.092563928803216 ], [ 78.358560930506172, 12.05794331324754 ], [ 78.381221675577081, 12.020967743998428 ], [ 78.400067552370047, 11.981992436542138 ], [ 78.414917064789378, 11.941391980149485 ], [ 78.425627203912853, 11.899556759484399 ], [ 78.432094825245983, 11.85688921824868 ], [ 78.434257642059762, 11.8138 ], [ 78.432094825245983, 11.770704002741994 ], [ 78.425627203912853, 11.728016385010395 ], [ 78.414917064789378, 11.686148561944279 ], [ 78.400067552370047, 11.64550423021662 ], [ 78.381221675577081, 11.606475460689287 ], [ 78.358560930506172, 11.569438897243915 ], [ 78.332303552519946, 11.534752099418716 ], [ 78.30270241452223, 11.502750065253462 ], [ 78.270042591653507, 11.473741969119391 ], [ 78.234638615861684, 11.448008147300799 ], [ 78.196831446787442, 11.425797361720372 ], [ 78.156985188136446, 11.40732436948554 ], [ 78.115483581161698, 11.392767822907427 ], [ 78.072726309025455, 11.382268521340777 ], [ 78.029125147631873, 11.375928032649538 ], [ 77.98883588812663, 11.37398762578937 ], [ 77.987194825245965, 11.341237780064285 ], [ 77.980993304784278, 11.300243816140371 ], [ 77.997231446787424, 11.292712679043095 ], [ 78.035038615861652, 11.270489795689066 ], [ 78.070442591653489, 11.244737627027531 ], [ 78.103102414522198, 11.215703275061978 ], [ 78.132703552519942, 11.183665418948317 ], [ 78.142671369680741, 11.170479803917203 ], [ 78.168938615861649, 11.15503386025174 ], [ 78.204342591653472, 11.129271414129757 ], [ 78.237002414522195, 11.100225502805268 ], [ 78.266603552519925, 11.06817492599089 ], [ 78.292860930506151, 11.033427424842253 ], [ 78.31552167557706, 10.996316754400153 ], [ 78.330065333850101, 10.966129359358954 ], [ 78.343460930506154, 10.948397280455623 ], [ 78.366121675577062, 10.911275930017409 ], [ 78.384967552370028, 10.872147460429936 ], [ 78.399817064789346, 10.831388004891762 ], [ 78.410527203912835, 10.789389536001794 ], [ 78.416994825245965, 10.746556111920953 ], [ 78.419157642059758, 10.7033 ], [ 78.416994825245965, 10.66003771470238 ], [ 78.410527203912835, 10.617186007748037 ], [ 78.399817064789346, 10.575157849136939 ], [ 78.384967552370028, 10.534358438062139 ], [ 78.366121675577062, 10.495181282677272 ], [ 78.343460930506154, 10.458004387234658 ], [ 78.317203552519942, 10.423186584254918 ], [ 78.287602414522198, 10.391064048130399 ], [ 78.254942591653489, 10.361947024911927 ], [ 78.219538615861666, 10.3361168109962 ], [ 78.198653747392882, 10.323801604881385 ], [ 78.203294825245976, 10.293019612376144 ], [ 78.205457642059756, 10.2497 ], [ 78.203294825245976, 10.20637446434686 ], [ 78.196827203912832, 10.163460362847054 ], [ 78.186117064789343, 10.121371255889054 ], [ 78.171267552370026, 10.080512912442893 ], [ 78.152421675577074, 10.041279384994846 ], [ 78.134168268048398, 10.011290173389954 ], [ 78.140527203912839, 9.986290119060381 ], [ 78.146994825245969, 9.943346717426188 ], [ 78.149157642059762, 9.89998 ], [ 78.146994825245969, 9.856607553137639 ], [ 78.140527203912839, 9.813647183389907 ], [ 78.12981706478935, 9.771512888586766 ], [ 78.114967552370032, 9.730610859555444 ], [ 78.096121675577066, 9.691335551499977 ], [ 78.073460930506158, 9.654065863595415 ], [ 78.047203552519946, 9.619161464470217 ], [ 78.017602414522202, 9.586959299969596 ], [ 77.984942591653493, 9.557770317920411 ], [ 77.94953861586167, 9.531876442570335 ], [ 77.911731446787428, 9.509527828970491 ], [ 77.871885188136446, 9.490940424837721 ], [ 77.830383581161684, 9.476293864398738 ], [ 77.787626309025455, 9.465729715417654 ], [ 77.744025147631859, 9.459350097076477 ], [ 77.7, 9.457216682654414 ], [ 77.655974852368132, 9.459350097076477 ], [ 77.61237369097455, 9.465729715417654 ], [ 77.569616418838308, 9.476293864398738 ], [ 77.528114811863546, 9.490940424837721 ], [ 77.488268553212563, 9.509527828970491 ], [ 77.450461384138336, 9.531876442570335 ], [ 77.415057408346499, 9.557770317920411 ], [ 77.404016800345516, 9.56763761297734 ], [ 77.39294259165348, 9.557740287183787 ], [ 77.357538615861657, 9.531846409551553 ], [ 77.319731446787429, 9.509497793986945 ], [ 77.279885188136433, 9.490910388223559 ], [ 77.238383581161671, 9.476263826501905 ], [ 77.195626309025442, 9.465699676596886 ], [ 77.177903218363085, 9.463106475853646 ], [ 77.215783581161688, 9.453746951057395 ], [ 77.25728518813645, 9.439098805406358 ], [ 77.297131446787432, 9.420507591678174 ], [ 77.334938615861674, 9.398151734536443 ], [ 77.370342591653497, 9.372245829624447 ], [ 77.40300241452222, 9.343038605076327 ], [ 77.43260355251995, 9.310810556416788 ], [ 77.458860930506162, 9.275871276369472 ], [ 77.481521675577071, 9.238556504012982 ], [ 77.500367552370037, 9.199224920463543 ], [ 77.515217064789354, 9.158254720793796 ], [ 77.525927203912843, 9.116039994189086 ], [ 77.53203782942775, 9.075363362244492 ], [ 77.536961384138337, 9.078969302078169 ], [ 77.574768553212579, 9.101345449831042 ], [ 77.614614811863575, 9.119953574362938 ], [ 77.656116418838323, 9.13461506785273 ], [ 77.698873690974565, 9.145189224846458 ], [ 77.742474852368161, 9.15157457740116 ], [ 77.7865, 9.153709857398834 ], [ 77.830525147631874, 9.15157457740116 ], [ 77.874126309025456, 9.145189224846458 ], [ 77.916883581161699, 9.13461506785273 ], [ 77.958385188136461, 9.119953574362938 ], [ 77.998231446787443, 9.101345449831044 ], [ 78.036038615861685, 9.078969302078169 ], [ 78.071442591653522, 9.053039945326287 ], [ 78.104102414522231, 9.023806358719272 ], [ 78.133703552519961, 8.991549317843479 ], [ 78.159960930506173, 8.956578720837012 ], [ 78.182621675577082, 8.919230633600487 ], [ 78.201467552370062, 8.879864081364564 ], [ 78.216317064789379, 8.838857616400441 ], [ 78.227027203912854, 8.79660569394955 ], [ 78.233494825245998, 8.753514890467855 ], [ 78.235657642059778, 8.71 ], [ 78.233494825245998, 8.666480045892438 ], [ 78.227027203912854, 8.623374246098669 ], [ 78.222765058750269, 8.60655022361764 ], [ 78.234902414522196, 8.59567354900868 ], [ 78.26450355251994, 8.563379198113831 ], [ 78.290760930506153, 8.528368306045214 ], [ 78.313421675577075, 8.490977360732913 ], [ 78.332267552370027, 8.451565831494472 ], [ 78.347117064789344, 8.410512731264362 ], [ 78.357827203912834, 8.368212987028167 ], [ 78.364294825245977, 8.325073652650811 ], [ 78.366457642059757, 8.28151 ], [ 78.364294825245977, 8.237941525650166 ], [ 78.357827203912834, 8.194787911484502 ], [ 78.347117064789344, 8.152464978173622 ], [ 78.332267552370027, 8.111380670783406 ], [ 78.313421675577075, 8.071931115641338 ], [ 78.290760930506153, 8.034496787064247 ], [ 78.26450355251994, 7.999438821622058 ], [ 78.234902414522196, 7.967095516286832 ], [ 78.202242591653487, 7.937779045106388 ], [ 78.166838615861664, 7.911772426963033 ], [ 78.129031446787423, 7.88932677455262 ], [ 78.08918518813644, 7.870658851972736 ], [ 78.047683581161678, 7.855948965271209 ], [ 78.004926309025436, 7.845339207010505 ], [ 77.961325147631854, 7.838932072385257 ], [ 77.9173, 7.836789460727394 ], [ 77.873274852368127, 7.838932072385255 ], [ 77.829673690974545, 7.845339207010505 ], [ 77.786916418838302, 7.855948965271209 ], [ 77.745414811863554, 7.870658851972736 ], [ 77.705568553212558, 7.88932677455262 ], [ 77.679310329760426, 7.904915959645109 ], [ 77.66418358116168, 7.89955497914616 ], [ 77.621426309025452, 7.888946337348105 ], [ 77.57782514763187, 7.882539876220266 ], [ 77.5338, 7.880397489665211 ], [ 77.489774852368129, 7.882539876220266 ], [ 77.446173690974547, 7.888946337348105 ], [ 77.403416418838319, 7.89955497914616 ], [ 77.361914811863556, 7.914263315456128 ], [ 77.32206855321256, 7.932929266338166 ], [ 77.284261384138333, 7.955372541921053 ], [ 77.275517771389147, 7.96179463550305 ], [ 77.262725147631855, 7.959915326789049 ], [ 77.2187, 7.95777334269938 ], [ 77.174674852368142, 7.959915326789049 ], [ 77.131714830725883, 7.96622639671167 ], [ 77.116285188136445, 7.958999179523917 ], [ 77.074783581161682, 7.944292442687084 ], [ 77.045646276418509, 7.937063878920719 ], [ 77.041160930506152, 7.929652423520846 ], [ 77.014903552519939, 7.894585481068335 ], [ 76.985302414522209, 7.862233928671621 ], [ 76.9526425916535, 7.832910011108843 ], [ 76.917238615861663, 7.806896810275006 ], [ 76.879431446787436, 7.784445493889798 ], [ 76.839585188136439, 7.765772872878988 ], [ 76.798083581161691, 7.751059291770122 ], [ 76.755326309025435, 7.740446873147933 ], [ 76.711725147631853, 7.734038133697561 ], [ 76.6677, 7.731894985662462 ], [ 76.62367485236814, 7.734038133697561 ], [ 76.580073690974544, 7.740446873147933 ], [ 76.537316418838316, 7.751059291770122 ], [ 76.495814811863553, 7.765772872878988 ], [ 76.455968553212571, 7.784445493889798 ], [ 76.418161384138315, 7.806896810275006 ], [ 76.382757408346492, 7.832910011108843 ], [ 76.350097585477783, 7.862233928671621 ], [ 76.320496447480053, 7.894585481068335 ], [ 76.294239069493841, 7.929652423520846 ], [ 76.271578324422919, 7.967096380955291 ], [ 76.267487168693023, 7.97566249795663 ], [ 76.267274852368132, 7.975672827523044 ], [ 76.223673690974536, 7.982077837840516 ], [ 76.180916418838308, 7.992684074640716 ], [ 76.139414811863546, 8.0073890712648 ], [ 76.112019614645348, 8.020219411472624 ], [ 76.101067552370026, 7.989909110961131 ], [ 76.082221675577074, 7.950447753154303 ], [ 76.059560930506166, 7.913002278112558 ], [ 76.033303552519953, 7.877933920842059 ], [ 76.003702414522209, 7.845581068714997 ], [ 75.971042591653486, 7.816255977645201 ], [ 75.935638615861663, 7.790241739446715 ], [ 75.897831446787436, 7.76778953049942 ], [ 75.857985188136439, 7.749116169098372 ], [ 75.816483581161677, 7.73440200582592 ], [ 75.773726309025449, 7.723789167990343 ], [ 75.730125147631867, 7.717380175657736 ], [ 75.6861, 7.715236943102735 ], [ 75.642074852368125, 7.717380175657736 ], [ 75.598473690974544, 7.723789167990343 ], [ 75.555716418838315, 7.73440200582592 ], [ 75.514214811863553, 7.749116169098372 ], [ 75.474368553212557, 7.767789530499418 ], [ 75.436561384138329, 7.790241739446715 ], [ 75.401157408346506, 7.816255977645201 ], [ 75.368497585477783, 7.845581068714997 ], [ 75.338896447480039, 7.877933920842059 ], [ 75.312639069493841, 7.913002278112558 ], [ 75.289978324422933, 7.950447753154303 ], [ 75.271132447629952, 7.989909110961131 ], [ 75.256282935210635, 8.031005771349287 ], [ 75.247548619515769, 8.06553133398557 ], [ 75.233598636131461, 8.078049549890469 ], [ 75.2062, 8.076716896027728 ], [ 75.162174852368125, 8.078858253822613 ], [ 75.131064821211467, 8.083427156185381 ], [ 75.12959482524596, 8.053801425197252 ], [ 75.12312720391283, 8.010628007007318 ], [ 75.112417064789355, 7.968285752428428 ], [ 75.097567552370037, 7.927182785420374 ], [ 75.078721675577057, 7.887715402321925 ], [ 75.056060930506149, 7.850264237312424 ], [ 75.029803552519951, 7.815190575590007 ], [ 75.000202414522221, 7.782832850608942 ], [ 74.967542591653483, 7.753503360003992 ], [ 74.932138615861675, 7.727485232747913 ], [ 74.894331446787419, 7.705029677660178 ], [ 74.854485188136437, 7.686353540637489 ], [ 74.812983581161689, 7.671637194938627 ], [ 74.770226309025432, 7.661022785561388 ], [ 74.72662514763185, 7.654612845232784 ], [ 74.6826, 7.6524692958335 ], [ 74.638574852368137, 7.654612845232784 ], [ 74.594973690974555, 7.661022785561388 ], [ 74.552216418838299, 7.671637194938627 ], [ 74.510714811863551, 7.686353540637489 ], [ 74.470868553212554, 7.705029677660177 ], [ 74.433061384138313, 7.727485232747913 ], [ 74.397657408346504, 7.753503360003992 ], [ 74.364997585477767, 7.782832850608942 ], [ 74.335396447480051, 7.815190575590007 ], [ 74.309139069493853, 7.850264237312424 ], [ 74.297261975075841, 7.869893381080216 ], [ 74.261273690974562, 7.875181433075001 ], [ 74.21851641883832, 7.885790427956251 ], [ 74.177014811863557, 7.90049925457861 ], [ 74.137168553212575, 7.919165829008838 ], [ 74.099361384138319, 7.941609856258084 ], [ 74.063957408346511, 7.96761458568534 ], [ 74.031297585477773, 7.996928920404127 ], [ 74.001696447480043, 8.029269859633921 ], [ 73.975439069493859, 8.064325249642197 ], [ 73.971815299517701, 8.070311080447302 ], [ 73.957473690974567, 8.07241739442291 ], [ 73.91471641883831, 8.083021271549374 ], [ 73.873214811863562, 8.097722991488896 ], [ 73.833368553212566, 8.116380528319217 ], [ 73.795561384138324, 8.138813661383741 ], [ 73.760157408346501, 8.164805730470203 ], [ 73.727497585477792, 8.194105744906153 ], [ 73.702371699870795, 8.221543753443241 ], [ 73.701073690974553, 8.221734317482241 ], [ 73.658316418838297, 8.232334236653676 ], [ 73.616814811863549, 8.247030460640019 ], [ 73.576968553212566, 8.265681008565709 ], [ 73.539161384138325, 8.288105717479981 ], [ 73.503757408346502, 8.314087997350944 ], [ 73.486245099969622, 8.329792828211682 ], [ 73.464516418838301, 8.335178160494245 ], [ 73.423014811863553, 8.349870540926768 ], [ 73.383168553212556, 8.368516201372953 ], [ 73.345361384138315, 8.390935019346708 ], [ 73.309957408346506, 8.416910454017708 ], [ 73.289415719816844, 8.435327127926943 ], [ 73.266714811863551, 8.443361759529761 ], [ 73.246452720234643, 8.452840917902149 ], [ 73.242321657935392, 8.425292799943888 ], [ 73.249327203912841, 8.39762646184225 ], [ 73.255794825245957, 8.354490382510098 ], [ 73.257562497933506, 8.318888431419623 ], [ 73.268403552519942, 8.307053156321487 ], [ 73.29466093050614, 8.272019077014727 ], [ 73.317321675577062, 8.234603473992012 ], [ 73.336167552370043, 8.195166072867002 ], [ 73.35101706478936, 8.15408615226141 ], [ 73.361727203912835, 8.111758911044324 ], [ 73.368194825245965, 8.068591678017714 ], [ 73.370357642059759, 8.025 ], [ 73.368194825245965, 7.981403645637545 ], [ 73.361727203912835, 7.938222563299209 ], [ 73.35101706478936, 7.89587283206223 ], [ 73.336167552370043, 7.854762645063606 ], [ 73.317321675577062, 7.815288364359205 ], [ 73.29466093050614, 7.777830685898556 ], [ 73.268403552519942, 7.742750952286984 ], [ 73.238802414522226, 7.710387649674622 ], [ 73.206142591653489, 7.681053123395816 ], [ 73.17073861586168, 7.655030544899035 ], [ 73.132931446787438, 7.6325711600788 ], [ 73.093085188136442, 7.613891846372689 ], [ 73.051583581161694, 7.599173002948776 ], [ 73.008826309025437, 7.588556795014008 ], [ 72.965225147631855, 7.58214576975845 ], [ 72.9212, 7.580001857750946 ], [ 72.877174852368142, 7.58214576975845 ], [ 72.833573690974561, 7.588556795014008 ], [ 72.790816418838304, 7.599173002948776 ], [ 72.749314811863556, 7.613891846372689 ], [ 72.71946514893466, 7.627884909630003 ], [ 72.704873690974551, 7.63003020027562 ], [ 72.662116418838309, 7.640645380946244 ], [ 72.620614811863547, 7.655362797764477 ], [ 72.580768553212565, 7.674040297061299 ], [ 72.564149408851591, 7.68391195406902 ], [ 72.546616418838312, 7.688264314421532 ], [ 72.505114811863564, 7.702980083689852 ], [ 72.465268553212567, 7.72165548760012 ], [ 72.429378453102245, 7.742971561241625 ], [ 72.405214811863544, 7.751538596216895 ], [ 72.385274366703158, 7.760883337891896 ], [ 72.366602414522234, 7.740470510864752 ], [ 72.333942591653496, 7.711138069954981 ], [ 72.298538615861702, 7.685117334783307 ], [ 72.260731446787432, 7.662659535897987 ], [ 72.22088518813645, 7.643981537681714 ], [ 72.179383581161701, 7.62926372857905 ], [ 72.136626309025445, 7.618648265432961 ], [ 72.093025147631877, 7.612237689447823 ], [ 72.049, 7.610093927596862 ], [ 72.00497485236815, 7.612237689447823 ], [ 71.961373690974568, 7.618648265432961 ], [ 71.918616418838312, 7.62926372857905 ], [ 71.877114811863564, 7.643981537681714 ], [ 71.842500368309928, 7.660207114105709 ], [ 71.80617369097456, 7.665547553520405 ], [ 71.763416418838304, 7.676161850032723 ], [ 71.721914811863542, 7.690878038993149 ], [ 71.682068553212559, 7.709553976673347 ], [ 71.644261384138318, 7.732009291441964 ], [ 71.608857408346495, 7.758027139383301 ], [ 71.576197585477772, 7.787356314006266 ], [ 71.548069889612904, 7.818103050940201 ], [ 71.530742591653492, 7.802544445446786 ], [ 71.495338615861684, 7.77652935481923 ], [ 71.457531446787428, 7.754076412435473 ], [ 71.417685188136446, 7.735402442643956 ], [ 71.376183581161698, 7.720687801000505 ], [ 71.333426309025441, 7.710074618693267 ], [ 71.289825147631873, 7.703665418565374 ], [ 71.2458, 7.701522116559794 ], [ 71.201774852368132, 7.703665418565373 ], [ 71.158173690974564, 7.710074618693267 ], [ 71.115416418838308, 7.720687801000505 ], [ 71.07391481186356, 7.735402442643956 ], [ 71.034068553212563, 7.754076412435471 ], [ 70.996261384138322, 7.77652935481923 ], [ 70.960857408346513, 7.802544445446786 ], [ 70.92819758547779, 7.831870500824237 ], [ 70.898596447480045, 7.864224420989108 ], [ 70.872339069493847, 7.899293940879311 ], [ 70.849678324422939, 7.936740663018817 ], [ 70.830832447629959, 7.976203341397287 ], [ 70.815982935210641, 8.017301383993752 ], [ 70.805272796087166, 8.059638539313283 ], [ 70.798805174754037, 8.102806730592384 ], [ 70.798608907270861, 8.106761748206624 ], [ 70.795974852368147, 8.106889858206788 ], [ 70.752373690974565, 8.113292795729272 ], [ 70.709616418838309, 8.123895596525864 ], [ 70.66811481186356, 8.138595821874672 ], [ 70.628268553212564, 8.157251458088179 ], [ 70.610598703398367, 8.167734909262759 ], [ 70.5998, 8.167209784947859 ], [ 70.555774852368145, 8.169350660072926 ], [ 70.512173690974564, 8.175752599123452 ], [ 70.469416418838321, 8.186353744807892 ], [ 70.427914811863559, 8.201051671893214 ], [ 70.388068553212577, 8.219704385528138 ], [ 70.350261384138321, 8.242131704859995 ], [ 70.329735256761978, 8.257197183730163 ], [ 70.3, 8.255751526454535 ], [ 70.255974852368141, 8.257891924147888 ], [ 70.212373690974559, 8.264292434779199 ], [ 70.169616418838302, 8.274891212675309 ], [ 70.128114811863554, 8.289585851934872 ], [ 70.088268553212572, 8.308234384699722 ], [ 70.050461384138316, 8.330656664692413 ], [ 70.020831687115177, 8.352398953128606 ], [ 70.014025147631855, 8.351400013054761 ], [ 69.97, 8.349260125124774 ], [ 69.925974852368128, 8.351400013054761 ], [ 69.882373690974546, 8.357798998543485 ], [ 69.839616418838304, 8.368395248349866 ], [ 69.798114811863542, 8.383086377256767 ], [ 69.785061764997735, 8.389193899393916 ], [ 69.746583581161701, 8.375573281573658 ], [ 69.703826309025445, 8.364977227007884 ], [ 69.660225147631877, 8.358578359304408 ], [ 69.6162, 8.35643851074307 ], [ 69.572174852368136, 8.358578359304408 ], [ 69.528573690974568, 8.364977227007884 ], [ 69.485816418838311, 8.375573281573658 ], [ 69.444314811863563, 8.390264139383852 ], [ 69.404468553212567, 8.408907863691876 ], [ 69.366661384138325, 8.431324348065559 ], [ 69.34678869040853, 8.445903161898926 ], [ 69.341383581161693, 8.443990183868268 ], [ 69.298626309025437, 8.433395998570925 ], [ 69.281398519314322, 8.430868109041354 ], [ 69.246885188136446, 8.414720635232211 ], [ 69.205383581161698, 8.400030702849941 ], [ 69.171490646853869, 8.391631925886955 ], [ 69.154031446787442, 8.381279345020284 ], [ 69.114185188136446, 8.362634295362504 ], [ 69.085123133339962, 8.352346096018094 ], [ 69.084538615861661, 8.351917200133027 ], [ 69.046731446787419, 8.329496138382064 ], [ 69.006885188136437, 8.310848616344567 ], [ 68.998108820923591, 8.307741301140302 ], [ 68.99033861586166, 8.302039103320041 ], [ 68.952531446787418, 8.279615188398667 ], [ 68.912685188136436, 8.260965299208197 ], [ 68.893145223754146, 8.254046203975184 ], [ 68.857931446787418, 8.233158002224268 ], [ 68.822563273836536, 8.21660211832496 ], [ 68.815677399443345, 8.210425127594382 ], [ 68.829817064789353, 8.171310629800645 ], [ 68.840527203912828, 8.128985209028535 ], [ 68.846994825245972, 8.085819822891597 ], [ 68.849157642059765, 8.04223 ], [ 68.846994825245972, 7.998635490988212 ], [ 68.840527203912828, 7.955456226588893 ], [ 68.829817064789353, 7.913108268783656 ], [ 68.814967552370035, 7.871999794303476 ], [ 68.796121675577069, 7.832527149620109 ], [ 68.773460930506147, 7.795071016036192 ], [ 68.747203552519963, 7.759992722545858 ], [ 68.717602414522219, 7.727630742806132 ], [ 68.684942591653495, 7.698297410843678 ], [ 68.649538615861672, 7.672275888038429 ], [ 68.611731446787431, 7.649817411497173 ], [ 68.571885188136449, 7.631138851181971 ], [ 68.530383581161686, 7.616420600120472 ], [ 68.487626309025444, 7.605804818730334 ], [ 68.444025147631862, 7.599394050774195 ], [ 68.4, 7.597250224762055 ], [ 68.355974852368135, 7.599394050774195 ], [ 68.312373690974553, 7.605804818730334 ], [ 68.28188235567039, 7.613375211641531 ], [ 68.2404, 7.611355274520769 ], [ 68.196374852368123, 7.613499030064818 ], [ 68.152773690974541, 7.61990958717961 ], [ 68.110016418838285, 7.630525019043009 ], [ 68.068514811863551, 7.64524278470216 ], [ 68.028668553212555, 7.663920727665548 ], [ 67.990861384138313, 7.686378459939197 ], [ 67.955457408346504, 7.712399117688944 ], [ 67.922797585477767, 7.741731471011312 ], [ 67.908846698280584, 7.756983020005547 ], [ 67.871714811863555, 7.770147265384644 ], [ 67.831868553212558, 7.788819691692144 ], [ 67.794061384138317, 7.811270773357691 ], [ 67.758657408346508, 7.837283701393902 ], [ 67.725997585477771, 7.866607310358982 ], [ 67.696396447480041, 7.898958520966861 ], [ 67.694380349086643, 7.901651008247401 ], [ 67.65441481186356, 7.915814901986635 ], [ 67.614568553212564, 7.934480782510161 ], [ 67.576761384138322, 7.956923973278453 ], [ 67.541357408346514, 7.982927730580146 ], [ 67.508697585477776, 8.012240965669591 ], [ 67.479096447480032, 8.04458068708707 ], [ 67.469606810186662, 8.057249520878521 ], [ 67.448673690974545, 8.060324004458467 ], [ 67.405916418838288, 8.070928198993222 ], [ 67.364414811863554, 8.085630359687981 ], [ 67.324568553212558, 8.104288457014697 ], [ 67.307562836945465, 8.114379214788567 ], [ 67.296121675577069, 8.090430847214428 ], [ 67.273460930506161, 8.052998230811834 ], [ 67.247203552519963, 8.017941861692764 ], [ 67.217602414522233, 7.98560002292868 ], [ 67.184942591653495, 7.956284875976648 ], [ 67.149538615861687, 7.930279428500235 ], [ 67.111731446787431, 7.907834783397443 ], [ 67.071885188136449, 7.889167696426232 ], [ 67.030383581161701, 7.874458466780798 ], [ 66.987626309025444, 7.863849181675803 ], [ 66.944025147631862, 7.857442332477545 ], [ 66.9, 7.855299816217759 ], [ 66.855974852368149, 7.857442332477543 ], [ 66.812373690974567, 7.863849181675803 ], [ 66.769616418838311, 7.874458466780798 ], [ 66.728114811863563, 7.889167696426232 ], [ 66.688268553212566, 7.907834783397441 ], [ 66.650461384138325, 7.930279428500235 ], [ 66.615057408346516, 7.956284875976648 ], [ 66.582397585477779, 7.98560002292868 ], [ 66.552796447480063, 8.017941861692764 ], [ 66.540405355216265, 8.034485276820362 ], [ 66.535031446787428, 8.031295960114701 ], [ 66.495185188136446, 8.012634497062507 ], [ 66.453683581161698, 7.997929689706272 ], [ 66.422527674330553, 7.990201351050182 ], [ 66.420102414522219, 7.987551554745033 ], [ 66.387442591653496, 7.958236547627727 ], [ 66.352038615861687, 7.932231223770965 ], [ 66.314231446787431, 7.909786685037904 ], [ 66.274385188136449, 7.891119686305659 ], [ 66.232883581161701, 7.876410526044517 ], [ 66.192415989892098, 7.866369422627767 ], [ 66.189638615861668, 7.864329018835458 ], [ 66.151831446787426, 7.841880794851175 ], [ 66.11198518813643, 7.823210739055061 ], [ 66.070483581161696, 7.808499174977819 ], [ 66.027726309025439, 7.797888208822847 ], [ 65.984125147631843, 7.791480345549561 ], [ 65.949611949811256, 7.789800469634334 ], [ 65.920383581161701, 7.779438825103492 ], [ 65.877626309025445, 7.76882712277409 ], [ 65.834025147631863, 7.7624188154147 ], [ 65.79, 7.76027581179603 ], [ 65.745974852368136, 7.7624188154147 ], [ 65.721787183219803, 7.765973812879345 ], [ 65.692626309025442, 7.758736355094781 ], [ 65.64902514763186, 7.752327893922711 ], [ 65.605, 7.750184838895672 ], [ 65.560974852368133, 7.752327893922711 ], [ 65.517373690974551, 7.758736355094781 ], [ 65.504666823886495, 7.761890081334633 ], [ 65.492726309025443, 7.758926557931928 ], [ 65.449125147631861, 7.752518099657267 ], [ 65.4051, 7.750375045598619 ], [ 65.361074852368134, 7.752518099657265 ], [ 65.317473690974552, 7.758926557931928 ], [ 65.306743677889713, 7.76158964618719 ], [ 65.295126309025434, 7.758706323068301 ], [ 65.251525147631853, 7.752297861438751 ], [ 65.2075, 7.750154806258812 ], [ 65.16347485236814, 7.752297861438751 ], [ 65.119873690974558, 7.758706323068301 ], [ 65.102211542272883, 7.763089904434768 ], [ 65.093826309025445, 7.76100877877917 ], [ 65.050225147631878, 7.754600352228112 ], [ 65.0062, 7.752457308772351 ], [ 64.96217485236815, 7.754600352228112 ], [ 64.918573690974583, 7.76100877877917 ] ], [ [ 66.836660930506156, 9.546426717952453 ], [ 66.810403552519958, 9.511511245843062 ], [ 66.780802414522228, 9.479298901056657 ], [ 66.754751183998451, 9.456008862697008 ], [ 66.76654259165349, 9.447382695483006 ], [ 66.799202414522213, 9.418181808071834 ], [ 66.828803552519958, 9.385960729329122 ], [ 66.855060930506156, 9.351028978700349 ], [ 66.856834207716318, 9.348109602907257 ], [ 66.871178324422942, 9.378034038890839 ], [ 66.893839069493865, 9.415333896027569 ], [ 66.912947432915459, 9.440750164757686 ], [ 66.898382935210634, 9.480901592761446 ], [ 66.887672796087145, 9.52307222887679 ], [ 66.881205174754015, 9.566069814436469 ], [ 66.879042357940222, 9.60948 ], [ 66.879962261235661, 9.627941133967349 ], [ 66.878167552370059, 9.622996136775141 ], [ 66.859321675577064, 9.583708273319772 ], [ 66.836660930506156, 9.546426717952453 ] ], [ [ 67.894202414522212, 8.977515531970655 ], [ 67.861542591653489, 8.948275840799539 ], [ 67.82613861586168, 8.922337113566861 ], [ 67.788331446787424, 8.899949889337254 ], [ 67.754367528305096, 8.884079156093264 ], [ 67.785838615861664, 8.865442037400594 ], [ 67.821242591653473, 8.839497441017976 ], [ 67.85390241452221, 8.810246725259121 ], [ 67.883503552519954, 8.777970848240551 ], [ 67.892992596589082, 8.765325618285662 ], [ 67.913926309025442, 8.762256662996506 ], [ 67.956683581161684, 8.75167137183784 ], [ 67.968143763680629, 8.747618515144566 ], [ 67.959472796087155, 8.781831090086504 ], [ 67.95300517475404, 8.824918601202238 ], [ 67.950842357940246, 8.86842 ], [ 67.95300517475404, 8.911916245992446 ], [ 67.959472796087155, 8.954988496726104 ], [ 67.970182935210644, 8.997222140680142 ], [ 67.984515044365622, 9.036782611657292 ], [ 67.981288816979699, 9.04209816564998 ], [ 67.95128358116169, 9.031495439749039 ], [ 67.93756731218258, 9.028102239162884 ], [ 67.923803552519956, 9.009773824288557 ], [ 67.894202414522212, 8.977515531970655 ] ], [ [ 74.035931984286535, 17.586958003142502 ], [ 74.036827203912836, 17.583551452927757 ], [ 74.043294825245965, 17.541982675406359 ], [ 74.045457642059759, 17.5 ], [ 74.044340374349659, 17.478307581797043 ], [ 74.074926309025443, 17.473980027148063 ], [ 74.1176835811617, 17.463763837733385 ], [ 74.159185188136433, 17.449598234065675 ], [ 74.19903144678743, 17.431618737310814 ], [ 74.236838615861672, 17.409997403081764 ], [ 74.27224259165348, 17.384941207533704 ], [ 74.304902414522218, 17.356690103039156 ], [ 74.329146920242167, 17.331156261138851 ], [ 74.339632447629953, 17.359129620314999 ], [ 74.358478324422933, 17.39715706913163 ], [ 74.381139069493855, 17.433231194406677 ], [ 74.407396447480039, 17.46700582138574 ], [ 74.436997585477769, 17.498157031860771 ], [ 74.469657408346507, 17.52638623147114 ], [ 74.497333852208556, 17.545958267938033 ], [ 74.481016418838308, 17.549855438180575 ], [ 74.43951481186356, 17.5640132256855 ], [ 74.399668553212564, 17.581979623162834 ], [ 74.361861384138322, 17.603580496987654 ], [ 74.342415647727222, 17.617326131044905 ], [ 74.308826309025434, 17.609306919111724 ], [ 74.265225147631853, 17.603142255311109 ], [ 74.2212, 17.601080702609892 ], [ 74.17717485236814, 17.603142255311109 ], [ 74.133573690974558, 17.609306919111724 ], [ 74.090816418838301, 17.619514908914365 ], [ 74.049314811863553, 17.633667240168013 ], [ 74.046610801900812, 17.634885988933387 ], [ 74.043827203912841, 17.617002641426602 ], [ 74.035931984286535, 17.586958003142502 ] ], [ [ 72.867425147631863, 16.871031484502595 ], [ 72.8234, 16.868961743036873 ], [ 72.822474076638244, 16.869005273202674 ], [ 72.80996755237004, 16.835553494920592 ], [ 72.79112167557706, 16.797411210084924 ], [ 72.768460930506151, 16.76121372752019 ], [ 72.747722035476741, 16.734436197149019 ], [ 72.749057642059753, 16.7084 ], [ 72.74689482524596, 16.666228924408987 ], [ 72.74042720391283, 16.624454818860578 ], [ 72.729717064789341, 16.583480406757371 ], [ 72.714867552370038, 16.543700954510012 ], [ 72.696021675577057, 16.505500438789234 ], [ 72.673360930506149, 16.46924781433415 ], [ 72.648685781997131, 16.437339459566676 ], [ 72.646894825245965, 16.402371160432036 ], [ 72.642297384027756, 16.372635898860302 ], [ 72.646994825245955, 16.342251009762389 ], [ 72.647945898004949, 16.323671634861594 ], [ 72.653727203912837, 16.30152156638222 ], [ 72.660194825245966, 16.259668799894172 ], [ 72.661647746571504, 16.231273773380771 ], [ 72.696638615861673, 16.211136052742351 ], [ 72.732042591653482, 16.185921070574562 ], [ 72.764702414522219, 16.157491210275111 ], [ 72.792271046272873, 16.128273067427948 ], [ 72.803662872800516, 16.134832362931324 ], [ 72.808472796087145, 16.165979382911424 ], [ 72.819182935210634, 16.207041727678725 ], [ 72.834032447629937, 16.24689000407022 ], [ 72.852878324422932, 16.285141279809853 ], [ 72.870715589086828, 16.313704296975768 ], [ 72.866272796087159, 16.330727114755724 ], [ 72.85980517475403, 16.372564691430497 ], [ 72.857642357940236, 16.4148 ], [ 72.85980517475403, 16.457026138718426 ], [ 72.866272796087159, 16.498836558256119 ], [ 72.876982935210634, 16.539828973688124 ], [ 72.891832447629952, 16.579609225304015 ], [ 72.910678324422932, 16.617795051496234 ], [ 72.933339069493854, 16.654019738216977 ], [ 72.959596447480038, 16.687935611041741 ], [ 72.989197585477768, 16.7192173377112 ], [ 73.021857408346506, 16.747565011109707 ], [ 73.057261384138314, 16.772706984946364 ], [ 73.095068553212556, 16.794402436901599 ], [ 73.127206799920415, 16.80895367830583 ], [ 73.129724076576366, 16.818573987686538 ], [ 73.107757408346515, 16.834168469313084 ], [ 73.075097585477778, 16.86249898802841 ], [ 73.045496447480048, 16.893751972215597 ], [ 73.027908971098796, 16.916440530912098 ], [ 72.99528518813645, 16.901677830277603 ], [ 72.953783581161687, 16.887469206342356 ], [ 72.911026309025445, 16.877220640865158 ], [ 72.867425147631863, 16.871031484502595 ] ], [ [ 74.0334, 9.341438842632662 ], [ 74.037388404630562, 9.341245502698291 ], [ 74.015057408346507, 9.357587515310238 ], [ 74.006349866970879, 9.365374222160844 ], [ 73.996488921936077, 9.36781134444017 ], [ 73.996332129958986, 9.367772594211706 ], [ 73.984942591653493, 9.357587515310238 ], [ 73.964687066881069, 9.342764350365774 ], [ 73.994025147631874, 9.341342180362497 ], [ 74.003325087877883, 9.339980946036274 ], [ 74.0334, 9.341438842632662 ] ], [ [ 76.100867552370048, 18.940901075558568 ], [ 76.082021675577082, 18.903208085464954 ], [ 76.059360930506159, 18.867436140984104 ], [ 76.036686844298998, 18.838503465816334 ], [ 76.02721706478934, 18.802719822087866 ], [ 76.012367552370023, 18.763428408207485 ], [ 75.993521675577057, 18.725695570714372 ], [ 75.970860930506149, 18.689885880844788 ], [ 75.944603552519936, 18.656345549285632 ], [ 75.915002414522192, 18.625399040372091 ], [ 75.882342591653483, 18.597345891800316 ], [ 75.873068015380809, 18.590826094101629 ], [ 75.88262167557707, 18.575718746668411 ], [ 75.901467552370036, 18.537944157383791 ], [ 75.916317064789354, 18.498591403308041 ], [ 75.927027203912843, 18.458038539845735 ], [ 75.933494825245972, 18.416675426900337 ], [ 75.935657642059752, 18.3749 ], [ 75.933494825245972, 18.333114453024244 ], [ 75.927027203912843, 18.29172136878713 ], [ 75.91996234999344, 18.264938905540475 ], [ 75.922921642940565, 18.25708509801521 ], [ 75.926794239753974, 18.254880718812174 ], [ 75.94556138413833, 18.268098832223167 ], [ 75.983368553212557, 18.289616144909566 ], [ 76.023214811863554, 18.307509048844938 ], [ 76.064716418838316, 18.321606369085927 ], [ 76.107473690974544, 18.331773280394088 ], [ 76.151074852368126, 18.337912568760398 ], [ 76.1951, 18.339965540140668 ], [ 76.239125147631867, 18.337912568760398 ], [ 76.282726309025449, 18.331773280394088 ], [ 76.325483581161677, 18.321606369085927 ], [ 76.366985188136425, 18.307509048844938 ], [ 76.388354471696644, 18.297913203441748 ], [ 76.4045, 18.298666277998631 ], [ 76.448525147631855, 18.296612816636348 ], [ 76.492126309025437, 18.290472063324575 ], [ 76.501910523332697, 18.288144997997481 ], [ 76.488832447629974, 18.314398500082682 ], [ 76.473982935210643, 18.353793420495165 ], [ 76.463272796087168, 18.394370870235591 ], [ 76.456805174754024, 18.435739347541276 ], [ 76.45464235794023, 18.4775 ], [ 76.456805174754024, 18.519250483911083 ], [ 76.463272796087168, 18.560588846371253 ], [ 76.473982935210643, 18.601117392338402 ], [ 76.488832447629974, 18.640446499504453 ], [ 76.507678324422926, 18.678198344748207 ], [ 76.530339069493834, 18.714010507214468 ], [ 76.556596447480047, 18.747539414646599 ], [ 76.586197585477791, 18.778463601454412 ], [ 76.6188574083465, 18.806486749094706 ], [ 76.654261384138337, 18.831340481645011 ], [ 76.674334552273521, 18.842727142166989 ], [ 76.659897585477793, 18.855110928402937 ], [ 76.630296447480049, 18.886015339319741 ], [ 76.604039069493851, 18.919509968877382 ], [ 76.581378324422928, 18.955270777845467 ], [ 76.571732024161022, 18.974557994219072 ], [ 76.538783581161681, 18.963409162729569 ], [ 76.496026309025439, 18.953279994887389 ], [ 76.452425147631857, 18.947162911699643 ], [ 76.4084, 18.945117267211653 ], [ 76.36437485236813, 18.947162911699643 ], [ 76.320773690974534, 18.953279994887389 ], [ 76.278016418838305, 18.963409162729569 ], [ 76.236514811863557, 18.977452145662468 ], [ 76.196668553212561, 18.995272732051816 ], [ 76.158861384138319, 19.016698116476512 ], [ 76.129093386075155, 19.03756910282296 ], [ 76.126427203912826, 19.020578619830186 ], [ 76.115717064789365, 18.980150914444444 ], [ 76.100867552370048, 18.940901075558568 ] ], [ [ 76.753060897825463, 9.508861653474659 ], [ 76.761627203912823, 9.475131684187099 ], [ 76.768094825245953, 9.43212267728633 ], [ 76.770257642059747, 9.38869 ], [ 76.768094825245953, 9.345251878201015 ], [ 76.767755181866875, 9.342992438417589 ], [ 76.767797585477794, 9.343038605076327 ], [ 76.800457408346517, 9.372245829624447 ], [ 76.83586138413834, 9.398151734536443 ], [ 76.873668553212568, 9.420507591678174 ], [ 76.91351481186355, 9.439098805406358 ], [ 76.955016418838326, 9.453746951057395 ], [ 76.997773690974554, 9.464311468374897 ], [ 77.01549677084563, 9.46690462987717 ], [ 76.977616418838309, 9.476263826501905 ], [ 76.936114811863561, 9.490910388223559 ], [ 76.896268553212551, 9.509497793986945 ], [ 76.858461384138323, 9.531846409551553 ], [ 76.825311590562691, 9.556091615893026 ], [ 76.792038615861671, 9.531756310495819 ], [ 76.754231446787429, 9.509407689036962 ], [ 76.753060897825463, 9.508861653474659 ] ], [ [ 76.570638615861654, 9.020038390318163 ], [ 76.532831446787426, 8.997657184456225 ], [ 76.492985188136416, 8.97904273269935 ], [ 76.451483581161668, 8.964374897223651 ], [ 76.40872630902544, 8.953795423972435 ], [ 76.365125147631858, 8.947406559854587 ], [ 76.3211, 8.945270054962506 ], [ 76.277074852368116, 8.947406559854587 ], [ 76.233473690974535, 8.953795423972435 ], [ 76.190716418838306, 8.964374897223651 ], [ 76.149214811863544, 8.97904273269935 ], [ 76.109368553212548, 8.997657184456225 ], [ 76.07156138413832, 9.020038390318163 ], [ 76.036157408346483, 9.045970125785358 ], [ 76.003497585477774, 9.075201911421409 ], [ 75.97389644748003, 9.107451452560904 ], [ 75.947639069493817, 9.142407386880466 ], [ 75.924978324422909, 9.179732312341034 ], [ 75.906132447629957, 9.219066065271495 ], [ 75.891282935210626, 9.260029215953182 ], [ 75.880572796087151, 9.302226747007056 ], [ 75.874105174754007, 9.345251878201015 ], [ 75.871942357940213, 9.38869 ], [ 75.874105174754007, 9.43212267728633 ], [ 75.879923188639651, 9.470811862454633 ], [ 75.876277110474049, 9.471712708398716 ], [ 75.852942591653488, 9.450851480719349 ], [ 75.817538615861665, 9.4249495252628 ], [ 75.779731446787423, 9.402593955411671 ], [ 75.744908387015442, 9.386344717835227 ], [ 75.757717064789347, 9.35102464616282 ], [ 75.768427203912836, 9.308833003845512 ], [ 75.77489482524598, 9.265803391020228 ], [ 75.777057642059759, 9.22235 ], [ 75.77489482524598, 9.178891257540698 ], [ 75.769510096070036, 9.143053019592662 ], [ 75.782467552370036, 9.116004298072253 ], [ 75.797317064789368, 9.075024525517149 ], [ 75.808027203912843, 9.032799979768777 ], [ 75.814494825245987, 8.989736964366434 ], [ 75.816657642059766, 8.94625 ], [ 75.81473095480564, 8.907506176868349 ], [ 75.821029420485885, 8.89712404912985 ], [ 75.830983581161675, 8.894660682076124 ], [ 75.872485188136423, 8.879989451957169 ], [ 75.91233144678742, 8.861368992506273 ], [ 75.950138615861661, 8.838978045647004 ], [ 75.985542591653484, 8.813031585601193 ], [ 76.018202414522193, 8.783778775201329 ], [ 76.033748950906357, 8.766826254516159 ], [ 76.061761384138322, 8.787358549190563 ], [ 76.099568553212563, 8.809752627854312 ], [ 76.139414811863546, 8.82837569773934 ], [ 76.180916418838308, 8.843048988483673 ], [ 76.223673690974536, 8.853631665753509 ], [ 76.267274852368132, 8.860022168210836 ], [ 76.3113, 8.862159171159453 ], [ 76.355325147631859, 8.860022168210836 ], [ 76.398926309025441, 8.853631665753509 ], [ 76.441683581161683, 8.843048988483673 ], [ 76.483185188136432, 8.82837569773934 ], [ 76.523031446787428, 8.809752627854312 ], [ 76.56083861586167, 8.787358549190563 ], [ 76.596242591653493, 8.761408469896004 ], [ 76.628902414522202, 8.732151591746291 ], [ 76.65226720951955, 8.706670221000691 ], [ 76.659457408346512, 8.713112080170641 ], [ 76.694861384138335, 8.739065526408918 ], [ 76.729496459805048, 8.75958336834924 ], [ 76.711939069493837, 8.782980271555461 ], [ 76.689278324422929, 8.82034222064596 ], [ 76.670432447629977, 8.859715155115273 ], [ 76.655582935210646, 8.900719290724272 ], [ 76.644872796087171, 8.942959234074666 ], [ 76.638405174754027, 8.986027810322311 ], [ 76.636242357940233, 9.02951 ], [ 76.638405174754027, 9.072986946365569 ], [ 76.638744864241005, 9.075248159101248 ], [ 76.6387024145222, 9.075201911421409 ], [ 76.606042591653477, 9.045970125785358 ], [ 76.570638615861654, 9.020038390318163 ] ], [ [ 75.183417064789353, 16.791516797054037 ], [ 75.16856755237005, 16.751780569771153 ], [ 75.149721675577069, 16.713621469064439 ], [ 75.127060930506161, 16.677408062401554 ], [ 75.100803552519963, 16.643490323819911 ], [ 75.071202414522219, 16.612196216675279 ], [ 75.038542591653481, 16.58382848488889 ], [ 75.003138615861673, 16.558661685499736 ], [ 74.965331446787431, 16.53693949304327 ], [ 74.925485188136449, 16.518872303627393 ], [ 74.883983581161701, 16.504635163590709 ], [ 74.8521910331242, 16.496999469104445 ], [ 74.848303552519951, 16.491973893869009 ], [ 74.834452412279688, 16.477319055210085 ], [ 74.830817064789343, 16.463402431466662 ], [ 74.82671895796102, 16.452417443755781 ], [ 74.828294825245948, 16.442229354607448 ], [ 74.828361274585788, 16.4409319202998 ], [ 74.83682167557707, 16.427394061619349 ], [ 74.855667552370051, 16.389170616363124 ], [ 74.856842769280192, 16.386019241844409 ], [ 74.865202414522216, 16.378750505411872 ], [ 74.89480355251996, 16.347413546286134 ], [ 74.906786200144637, 16.331908641825517 ], [ 74.914931446787421, 16.32821177759342 ], [ 74.952738615861662, 16.306463800283829 ], [ 74.988142591653471, 16.2812610408861 ], [ 75.014237274021312, 16.258557025012845 ], [ 75.026683581161677, 16.25556410050368 ], [ 75.068185188136439, 16.241307714881778 ], [ 75.108031446787422, 16.223213101777048 ], [ 75.145838615861663, 16.20145349291375 ], [ 75.158724053732399, 16.192275935151052 ], [ 75.187683581161693, 16.185309642990937 ], [ 75.229185188136441, 16.171048173240361 ], [ 75.269031446787423, 16.15294711348146 ], [ 75.274804597566046, 16.149623241102447 ], [ 75.284826309025433, 16.148195335273883 ], [ 75.32758358116169, 16.137907491470713 ], [ 75.369085188136424, 16.123642603467495 ], [ 75.391265665391217, 16.113564209787288 ], [ 75.407525147631858, 16.112796814874152 ], [ 75.45112630902544, 16.106583162544577 ], [ 75.493883581161683, 16.096293158706853 ], [ 75.535385188136445, 16.082025277869935 ], [ 75.57401741043158, 16.064467839944989 ], [ 75.617725147631859, 16.062404452926895 ], [ 75.626080918312908, 16.061213360280004 ], [ 75.617897585477792, 16.068341046877222 ], [ 75.588296447480047, 16.099722446378248 ], [ 75.562039069493835, 16.13373497967617 ], [ 75.539378324422927, 16.170049808270512 ], [ 75.520532447629975, 16.20831601611167 ], [ 75.505682935210643, 16.248164034588552 ], [ 75.494972796087168, 16.289209242050852 ], [ 75.488505174754025, 16.33105570162698 ], [ 75.486342357940245, 16.3733 ], [ 75.487239866358337, 16.390826404285985 ], [ 75.478557408346504, 16.397004256918201 ], [ 75.44589758547778, 16.425399407387662 ], [ 75.416296447480036, 16.456723814884509 ], [ 75.390039069493824, 16.49067445714509 ], [ 75.367378324422916, 16.526923066856643 ], [ 75.34853244762995, 16.565119342839086 ], [ 75.333682935210632, 16.604894369989939 ], [ 75.322972796087157, 16.64586421327833 ], [ 75.316505174754013, 16.687633649572852 ], [ 75.316451471517794, 16.688680649699219 ], [ 75.299278324422929, 16.716124143225453 ], [ 75.280432447629963, 16.754282742849096 ], [ 75.277466992766762, 16.762217982354759 ], [ 75.27109758547779, 16.767745836728654 ], [ 75.241496447480046, 16.799014458365306 ], [ 75.215239069493848, 16.832904522459085 ], [ 75.211877846984976, 16.838271592220639 ], [ 75.210383581161679, 16.837759875950375 ], [ 75.194355104093901, 16.833916972035706 ], [ 75.194127203912842, 16.832446581058988 ], [ 75.183417064789353, 16.791516797054037 ] ] ] } }
]
}
